{"type":"FeatureCollection","name":"tmpl58_un8g","features":[{"type":"Feature","properties":{},"geometry":{"type":"MultiPolygon","coordinates":[[[[20.927830535183272,49.22764761167503,0.0],[20.927970245107254,49.227408731887174,0.0],[20.9279057012676,49.22731780149292,0.0],[20.92750040933869,49.227399343212404,0.0],[20.926300363525602,49.227636566834974,0.0],[20.9260643683068,49.22768540416846,0.0],[20.925635758435206,49.2276655916438,0.0],[20.925226952366497,49.22780805195902,0.0],[20.925045936698705,49.22805815265407,0.0],[20.92553661240935,49.2282006895157,0.0],[20.9266527713789,49.22815118581504,0.0],[20.927431499421452,49.22771234557385,0.0],[20.927830535183272,49.22764761167503,0.0]]],[[[20.926388888944,49.22854923962049,0.0],[20.926071512394092,49.22848677569687,0.0],[20.925089355050734,49.228706056846455,0.0],[20.924265286907385,49.228773592825306,0.0],[20.92378232702271,49.228627257965265,0.0],[20.92289805072765,49.22897512252626,0.0],[20.9225174890624,49.22904775069127,0.0],[20.92193982948195,49.22930141962873,0.0],[20.921259001721367,49.229647432594824,0.0],[20.92066791679163,49.230080087514935,0.0],[20.92082586265777,49.23014731605801,0.0],[20.920940964088132,49.23019627379019,0.0],[20.922373538638595,49.23080600766395,0.0],[20.922566748759163,49.23088827817678,0.0],[20.923141464660166,49.23044858429368,0.0],[20.923585434041016,49.23025220449063,0.0],[20.924158069577405,49.22996423628074,0.0],[20.925488464087675,49.229468215882896,0.0],[20.926044386485124,49.22928160003737,0.0],[20.926462402453666,49.22900160097267,0.0],[20.92664167845623,49.2284242519217,0.0],[20.926388888944,49.22854923962049,0.0]]]]}}]}