{"type":"FeatureCollection","name":"tmpnm7uq8ou","features":[{"type":"Feature","properties":{},"geometry":{"type":"MultiPolygon","coordinates":[[[[20.99984617807056,49.22902104076524,0.0],[20.999883010852436,49.22900822118003,0.0],[20.999908984944252,49.22899050818969,0.0],[20.999924944169102,49.2289709094569,0.0],[20.99994489823586,49.22893519028309,0.0],[21.000065119835053,49.228953670074944,0.0],[21.000167557729906,49.228949238559565,0.0],[21.000245532900202,49.22893500319177,0.0],[21.000271465587694,49.22891908937385,0.0],[21.000223708250513,49.22884622942422,0.0],[21.0000255109234,49.22880009396406,0.0],[20.999830863780733,49.22880067507128,0.0],[20.99971441650309,49.22881934007076,0.0],[20.999555913769253,49.22879631910068,0.0],[20.99942991073318,49.22875026295282,0.0],[20.999301956992678,49.228709570646345,0.0],[20.999188728321702,49.228663634942045,0.0],[20.999104856517135,49.228612585295686,0.0],[20.9990378666073,49.22858383040382,0.0],[20.99892514214491,49.22859893350686,0.0],[20.998759705227645,49.22860098352953,0.0],[20.998577467677006,49.2286196242967,0.0],[20.998498699045253,49.228627873430185,0.0],[20.998448946389445,49.2286471563205,0.0],[20.998370724503772,49.2286302679132,0.0],[20.998255015318232,49.22857293312344,0.0],[20.998175112382818,49.22846566198718,0.0],[20.998153250981108,49.22842057822176,0.0],[20.9980788113364,49.22839773656436,0.0],[20.99798458536407,49.22840284872442,0.0],[20.997896871258877,49.228402619461356,0.0],[20.99779705930671,49.228370572818086,0.0],[20.99772852100233,49.22832863992868,0.0],[20.997666000601846,49.22830471235281,0.0],[20.997533407567644,49.22830946628892,0.0],[20.997442818157083,49.22831520143521,0.0],[20.997314767227287,49.22832058124195,0.0],[20.997193328123963,49.22831645446724,0.0],[20.997111949612748,49.22831928636071,0.0],[20.99703444057577,49.228311981637326,0.0],[20.99699337955732,49.22830678070852,0.0],[20.996957897889697,49.22830228673745,0.0],[20.996966534639146,49.228279693271766,0.0],[20.996981148512475,49.22824145858838,0.0],[20.997008240577617,49.228214185636936,0.0],[20.99705643083385,49.22818351727469,0.0],[20.997166429062407,49.228167192188465,0.0],[20.99735210119599,49.228159353808024,0.0],[20.997462518382893,49.228165774871684,0.0],[20.997505569656145,49.22820267669846,0.0],[20.997524026176155,49.22823636814111,0.0],[20.997728178281125,49.228219123802084,0.0],[20.997900815351112,49.22818003969223,0.0],[20.998014632215355,49.22815657357974,0.0],[20.99804142601398,49.22818494741881,0.0],[20.998059911102537,49.22825873023481,0.0],[20.99817818204889,49.228324459057056,0.0],[20.998282481812517,49.22836073989218,0.0],[20.998380554343406,49.228388587685,0.0],[20.99848519155167,49.22836742111684,0.0],[20.998548844276208,49.228339293796786,0.0],[20.998599198976112,49.22829308362544,0.0],[20.998615936432426,49.228237588457695,0.0],[20.99860163330183,49.22818120168075,0.0],[20.99801470384154,49.228091547872204,0.0],[20.997640990768346,49.228136726435785,0.0],[20.9976721103583,49.22798459348213,0.0],[20.997333395880123,49.227954341545214,0.0],[20.99729158262539,49.2281188864528,0.0],[20.996896987141024,49.22805489289508,0.0],[20.996607392658746,49.22776461413439,0.0],[20.996641010443984,49.227675446882174,0.0],[20.996194792467573,49.22787232609106,0.0],[20.995747709157694,49.22785765845192,0.0],[20.99547603652608,49.227969989798375,0.0],[20.99530654742338,49.228094158917976,0.0],[20.99521242462672,49.22820124624376,0.0],[20.9948707764259,49.2282218914331,0.0],[20.994558101976523,49.228370758296485,0.0],[20.994310856232293,49.22855359676418,0.0],[20.9941198573731,49.228636438310154,0.0],[20.99395283591005,49.2287526991024,0.0],[20.99408967311179,49.22883560814446,0.0],[20.99438547377914,49.2287215373265,0.0],[20.99469088656371,49.228540607629625,0.0],[20.994881398408705,49.228464113471595,0.0],[20.995117292465423,49.228583594939764,0.0],[20.995113883606624,49.22862815264258,0.0],[20.995237313316363,49.22867049101869,0.0],[20.995528893994617,49.228680058328244,0.0],[20.995846732676014,49.228601147301525,0.0],[20.995977446564304,49.22867563066646,0.0],[20.996028037961352,49.228655406682584,0.0],[20.99628949037112,49.22864947077606,0.0],[20.99635848939987,49.228670469550885,0.0],[20.996435689287267,49.22864964804751,0.0],[20.996569016544203,49.22865328323738,0.0],[20.996716869503032,49.22866185123253,0.0],[20.996772226184145,49.228721016341964,0.0],[20.99684973054244,49.228770815435034,0.0],[20.996970547105903,49.22876116546017,0.0],[20.99705047300628,49.22869967618564,0.0],[20.99708665312972,49.228632997857765,0.0],[20.99708965785356,49.22857915826934,0.0],[20.997099699661643,49.228537362371114,0.0],[20.997156919918147,49.22851157267099,0.0],[20.997212158932324,49.22852753260187,0.0],[20.997216852884122,49.22852888845228,0.0],[20.997324915686747,49.22860171086788,0.0],[20.997378886873893,49.22864051126655,0.0],[20.997474056905318,49.22863422412979,0.0],[20.99753197484119,49.22865990050524,0.0],[20.99764301832372,49.2286800805361,0.0],[20.997678255077798,49.22865647767195,0.0],[20.997670169268773,49.22860852251676,0.0],[20.997750953934638,49.22859132890461,0.0],[20.997917086404527,49.228598865244194,0.0],[20.997907404818456,49.22862391024294,0.0],[20.997859377215082,49.228647399855745,0.0],[20.9977926167601,49.228692251597195,0.0],[20.99776810822122,49.22872673084082,0.0],[20.99779078897609,49.228776018957475,0.0],[20.9978322410753,49.22880274067189,0.0],[20.997905195069396,49.228809400307256,0.0],[20.997989717751572,49.2287886459506,0.0],[20.99816490354955,49.22879986390851,0.0],[20.99820912592816,49.22878351485776,0.0],[20.998293379906105,49.228774725514405,0.0],[20.998386490823535,49.22877919176662,0.0],[20.998477587310433,49.2287920097377,0.0],[20.998486199312666,49.228816024082725,0.0],[20.998336802267744,49.22887926185125,0.0],[20.99823760426938,49.22890227131891,0.0],[20.99818609499703,49.22893854016041,0.0],[20.999309319654984,49.229157158081236,0.0],[20.999343291706882,49.22915315608705,0.0],[20.99939554143418,49.22914527146715,0.0],[20.999434077822574,49.229137846651575,0.0],[20.999477080690237,49.2291358529959,0.0],[20.9995125099677,49.22914516197532,0.0],[20.999531857355002,49.229180169661966,0.0],[20.999590239168263,49.22917605023796,0.0],[20.999680932007884,49.22914039071655,0.0],[20.99971636076876,49.229107807637114,0.0],[20.99974172845729,49.22907572398344,0.0],[20.99975699459063,49.22904594714259,0.0],[20.999788387756514,49.229031274744464,0.0],[20.99984617807056,49.22902104076524,0.0]]],[[[20.99909743503339,49.22832406313767,0.0],[20.999167721317725,49.22841149078478,0.0],[20.999307054866815,49.22843313674779,0.0],[20.999416817660315,49.228428180764105,0.0],[20.99947816303681,49.22846406089011,0.0],[20.999653638856127,49.22850459010849,0.0],[20.999725369285937,49.228483722268024,0.0],[20.999793516221786,49.22845921585524,0.0],[20.999861092956337,49.2284610434783,0.0],[20.99995716456845,49.228455360083174,0.0],[21.000082494021772,49.2284906349867,0.0],[21.00022138685649,49.2285326302371,0.0],[21.000348555059322,49.22852602901248,0.0],[21.000434256646262,49.22853460830712,0.0],[21.00050422496769,49.22851072836478,0.0],[21.000542842473106,49.22849971365587,0.0],[21.000603116766722,49.22850087842035,0.0],[21.00065242661671,49.22854442123056,0.0],[21.00070362212656,49.22858559498663,0.0],[21.000804425941915,49.22861406045387,0.0],[21.000844888497333,49.2286024668845,0.0],[21.000944954702465,49.22858066310407,0.0],[21.000971010005156,49.22855935945051,0.0],[21.00097684709857,49.22850076097561,0.0],[21.00057282399682,49.22840511908737,0.0],[20.999746188797385,49.22838441429048,0.0],[20.999285494409445,49.228292739898336,0.0],[20.99905846006661,49.22826744387929,0.0],[20.99909743503339,49.22832406313767,0.0]]],[[[20.988678327586946,49.23242166324938,0.0],[20.987428329910234,49.23259061518793,0.0],[20.986511717283864,49.23263223130401,0.0],[20.986057900449417,49.23272400765001,0.0],[20.98601787088146,49.23273210294579,0.0],[20.985723202326888,49.23278899801875,0.0],[20.98535997291056,49.232844798483995,0.0],[20.985289228796205,49.232856367623874,0.0],[20.98504974511056,49.232895533338,0.0],[20.984766600434217,49.232975638843975,0.0],[20.984758996985803,49.23297708217435,0.0],[20.984646536518902,49.23299841890087,0.0],[20.984577810101545,49.23299015264414,0.0],[20.984528265766887,49.23298168018775,0.0],[20.98437197738902,49.232979706976536,0.0],[20.984315774646376,49.232991933161415,0.0],[20.984224723147523,49.23301173845256,0.0],[20.98409992160524,49.23306508067151,0.0],[20.98405175696874,49.23311404012035,0.0],[20.983888143666764,49.23314982736182,0.0],[20.98372659621244,49.23315688141999,0.0],[20.983627944192644,49.23315789333449,0.0],[20.983619456807908,49.23314720642275,0.0],[20.983588220011406,49.23298777680119,0.0],[20.983483309017192,49.23298855288863,0.0],[20.983494642265786,49.23305038471404,0.0],[20.983478475137183,49.233120779147995,0.0],[20.98349118263355,49.23324451296794,0.0],[20.983491289174943,49.23370583580453,0.0],[20.983518481888993,49.23403942346898,0.0],[20.98355835196375,49.23432980732537,0.0],[20.983662970862056,49.23463207587085,0.0],[20.983663340426098,49.23463268853959,0.0],[20.983831791485258,49.23514073999748,0.0],[20.98384369210319,49.23518080376916,0.0],[20.983914446638327,49.23504545210018,0.0],[20.98398806929078,49.2348005685067,0.0],[20.984137168844523,49.23450285334588,0.0],[20.98414044482806,49.23446841983951,0.0],[20.98414810949148,49.23438786469814,0.0],[20.984126767903554,49.234298328855516,0.0],[20.9842540244696,49.23423239994473,0.0],[20.98430694021456,49.23415287004449,0.0],[20.984287045802766,49.234050366060245,0.0],[20.98428503667605,49.23404001570931,0.0],[20.98417074240062,49.233937038989126,0.0],[20.984158963262093,49.23392642567793,0.0],[20.984178317657687,49.23389563268827,0.0],[20.98426176516151,49.23376287273518,0.0],[20.98426457619432,49.23375839975472,0.0],[20.98439169264603,49.2336870912699,0.0],[20.98447626064348,49.23367005792345,0.0],[20.98468300053993,49.23371819312571,0.0],[20.984938436682793,49.23385377451568,0.0],[20.985132911332396,49.23396126883953,0.0],[20.985114675432254,49.2340009488064,0.0],[20.985037273528068,49.234010337955034,0.0],[20.984920610548706,49.23402449093701,0.0],[20.98487948001736,49.23403812167902,0.0],[20.984819997706836,49.23405783255904,0.0],[20.98478581105097,49.234232304299866,0.0],[20.984824965316378,49.23437909149621,0.0],[20.985010472809645,49.234456165672576,0.0],[20.985208310012716,49.23446360013946,0.0],[20.985235452462227,49.23446461993427,0.0],[20.98535996934609,49.23444457223908,0.0],[20.985366528674398,49.234443515863155,0.0],[20.985490688248067,49.234363258892856,0.0],[20.985509937898254,49.234251767533245,0.0],[20.98564487281608,49.23427730007465,0.0],[20.98579019951482,49.23427939707719,0.0],[20.98584147197684,49.23435964441058,0.0],[20.98590319046826,49.23441824072346,0.0],[20.985874851864725,49.23449392499207,0.0],[20.986006871007298,49.23451231176665,0.0],[20.986101116225285,49.23444133386593,0.0],[20.986139438164752,49.23443913698539,0.0],[20.98622697823786,49.234545938551484,0.0],[20.986604087792976,49.23449717272053,0.0],[20.986752331882755,49.23450641385233,0.0],[20.986855068339707,49.23456100151864,0.0],[20.987083143583135,49.23458377885412,0.0],[20.98730100257127,49.23452408474007,0.0],[20.98764353858036,49.234405665469964,0.0],[20.987779306818638,49.234352211861555,0.0],[20.987882271701473,49.23430267649602,0.0],[20.988009564682898,49.23423853557504,0.0],[20.988108136831293,49.234233925039256,0.0],[20.988282985788988,49.23432367187386,0.0],[20.98845344277591,49.23445833356185,0.0],[20.988566545150896,49.23448767362603,0.0],[20.988723276894348,49.234507598757,0.0],[20.988867780898495,49.23447558823788,0.0],[20.988953615282764,49.23439751553919,0.0],[20.989012440439552,49.234335878005425,0.0],[20.989040252245115,49.234238658481694,0.0],[20.989114154107668,49.23423429873549,0.0],[20.989168954781675,49.23430063268726,0.0],[20.989184735636506,49.23431973450464,0.0],[20.989244989560717,49.234317311998616,0.0],[20.989337789210047,49.23427873121626,0.0],[20.989497382052722,49.23421238289116,0.0],[20.989702877040198,49.23420846633267,0.0],[20.989773780334932,49.23419337502615,0.0],[20.989850230743954,49.23406692692273,0.0],[20.989807262573336,49.233990186495824,0.0],[20.989794523247852,49.23391672603376,0.0],[20.989813945206436,49.23391502516598,0.0],[20.990120029003286,49.23388822109592,0.0],[20.990372513340972,49.233786884557595,0.0],[20.990564767585866,49.233807563690085,0.0],[20.99057038423119,49.23380816773754,0.0],[20.990690970728043,49.23380692512085,0.0],[20.990782326066682,49.23377966938061,0.0],[20.99088419278815,49.23374927825511,0.0],[20.99114616902554,49.23358680690024,0.0],[20.991207851340434,49.23353051999707,0.0],[20.991273139355048,49.23351010264692,0.0],[20.99135931381662,49.23359322400536,0.0],[20.99136015126714,49.23359286257747,0.0],[20.991565988465936,49.233490208516805,0.0],[20.991652131518816,49.23343910200468,0.0],[20.99153157912045,49.233263803889365,0.0],[20.991504225988656,49.2331527882213,0.0],[20.991613224398343,49.23312653175654,0.0],[20.991730536330333,49.23321685874231,0.0],[20.991853857951167,49.2332155877571,0.0],[20.991972529556527,49.233135378181224,0.0],[20.991979971219518,49.2329898990419,0.0],[20.991905381658686,49.2328524577636,0.0],[20.991754447170308,49.23286320159557,0.0],[20.99149219849634,49.232881869209336,0.0],[20.991445336459407,49.232984666632824,0.0],[20.99140749128529,49.23298171671001,0.0],[20.99134373586552,49.23297674719601,0.0],[20.991289745215994,49.23291708784325,0.0],[20.991169212099276,49.23278389719784,0.0],[20.99114559812573,49.23275780317136,0.0],[20.991578805385792,49.232667073521796,0.0],[20.991580022530204,49.23250810139727,0.0],[20.99158012501426,49.232494735214104,0.0],[20.99151080143038,49.23245604558774,0.0],[20.991510656428698,49.23245596429946,0.0],[20.991331846712363,49.23242909646257,0.0],[20.991209887321634,49.23225982958019,0.0],[20.99115503608911,49.2321884963826,0.0],[20.99108253638629,49.232094212642146,0.0],[20.991119906457627,49.23205254049059,0.0],[20.991168061722934,49.23200357897209,0.0],[20.99134283833145,49.231976638372394,0.0],[20.99141657238826,49.2319651053353,0.0],[20.99143502263552,49.23193439864246,0.0],[20.991416456147963,49.23192770458074,0.0],[20.99137694727253,49.231913458748224,0.0],[20.991354383363863,49.23188676181554,0.0],[20.991408578358993,49.231861073437976,0.0],[20.9914849528869,49.23184591782328,0.0],[20.991461480248894,49.23178154024153,0.0],[20.991488289560852,49.231763015536664,0.0],[20.991582790420512,49.23169771750841,0.0],[20.99156561947293,49.23166737953169,0.0],[20.991251178928408,49.23158626995468,0.0],[20.99105540671484,49.231538038339636,0.0],[20.991103300827213,49.23147830060257,0.0],[20.9911952643889,49.23142708676967,0.0],[20.991282424115166,49.231404650951454,0.0],[20.991367467433054,49.23140735415063,0.0],[20.991458108636312,49.23141539089761,0.0],[20.99156072030354,49.23146458660554,0.0],[20.991660979410373,49.2315299644909,0.0],[20.99182256120371,49.231524701420135,0.0],[20.991977290106348,49.23146207063394,0.0],[20.99208147013892,49.23146278184916,0.0],[20.99213671083405,49.23148016214139,0.0],[20.99218942819823,49.231454207930376,0.0],[20.992196299882163,49.23145082424988,0.0],[20.992189515952706,49.23139704225927,0.0],[20.992064873425143,49.23122959765342,0.0],[20.992081717363728,49.23119467060448,0.0],[20.992048197085303,49.23113482394444,0.0],[20.99137620047731,49.23098779184804,0.0],[20.991308819839215,49.230989353723075,0.0],[20.991147262565953,49.230993097114414,0.0],[20.990699582012,49.23100346953097,0.0],[20.989673017412382,49.23133940836805,0.0],[20.989451791177807,49.23210406379723,0.0],[20.988678327586946,49.23242166324938,0.0]]],[[[21.003544830647012,49.231502944540544,0.0],[21.003057457529163,49.231404161204644,0.0],[21.00268613560047,49.23106044762065,0.0],[21.002509297889333,49.23119052977472,0.0],[21.002398656668994,49.23115832720443,0.0],[21.002230820093402,49.230949730791984,0.0],[21.001857171699218,49.23092956818044,0.0],[21.001507404618643,49.23125353346175,0.0],[21.00109999584326,49.2312453196511,0.0],[21.00095632404502,49.23107192241369,0.0],[21.001601896420375,49.230819774030344,0.0],[21.001535094342756,49.230763197698884,0.0],[21.001358363777594,49.23063518072413,0.0],[21.001076975270077,49.230537300643476,0.0],[21.000814119079376,49.23065461026999,0.0],[20.999801742587596,49.23091955972249,0.0],[20.999150263100848,49.23115691818811,0.0],[20.9985929694474,49.231228837776044,0.0],[20.998305130735545,49.23093018898366,0.0],[20.998493774318295,49.230719426716156,0.0],[20.99793855550733,49.230610437560244,0.0],[20.997771755974465,49.23076563732309,0.0],[20.997507217842983,49.230874182324726,0.0],[20.997525484444292,49.23106571763395,0.0],[20.997383015017338,49.23114073155536,0.0],[20.997270254294524,49.2310298526238,0.0],[20.99709591870719,49.23104696701914,0.0],[20.99628906098405,49.23139675789787,0.0],[20.996099120276373,49.231553397649435,0.0],[20.99582210683347,49.23183010005085,0.0],[20.99600430069854,49.23189205423634,0.0],[20.99666107834822,49.231996722532344,0.0],[20.997097753081842,49.23226036676313,0.0],[20.997266370570205,49.232246530880644,0.0],[20.997483652899014,49.23207234408347,0.0],[20.997943657061107,49.23211007901004,0.0],[20.99744322324697,49.23252268313519,0.0],[20.997028334166757,49.23262467644702,0.0],[20.996976065471802,49.23276720881921,0.0],[20.997051978381933,49.23292239874993,0.0],[20.996784973169,49.23326783838264,0.0],[20.99689764250232,49.23331835735196,0.0],[20.997017808971485,49.233372237116775,0.0],[20.997160268009683,49.233405570947276,0.0],[20.99743604121133,49.23345257089342,0.0],[20.997500982858305,49.23377481095011,0.0],[20.99749854881052,49.233926748962745,0.0],[20.99764826377923,49.23400916323498,0.0],[20.997494012824205,49.23425848309357,0.0],[20.997900618492046,49.23433771162392,0.0],[20.997984018884342,49.23444643040336,0.0],[20.99780110954936,49.23455531738329,0.0],[20.997908939405168,49.234765457577,0.0],[20.997589728502813,49.234979497047696,0.0],[20.997629158236343,49.23526960845211,0.0],[20.99753303283727,49.23533322932206,0.0],[20.99814910239715,49.23561955060208,0.0],[20.99847067639389,49.236108871511476,0.0],[20.99857016579647,49.236213866730274,0.0],[20.99866672919532,49.23631579494402,0.0],[20.9987160340245,49.23662225280806,0.0],[20.99879623628036,49.23695799274474,0.0],[20.999093956792777,49.237313464998785,0.0],[20.999439117379925,49.23747827698865,0.0],[20.999941723978463,49.237592517510066,0.0],[21.000565146708794,49.237786518188436,0.0],[21.000880931511706,49.238065961566946,0.0],[21.00090647785392,49.23810112499849,0.0],[21.001089568772596,49.23835314797159,0.0],[21.001243783077246,49.23869581115494,0.0],[21.00124682760764,49.23870275314297,0.0],[21.00173760417515,49.23920606751466,0.0],[21.002042027835028,49.23945598696217,0.0],[21.002198473509935,49.239337894441654,0.0],[21.00240746444558,49.23927058399538,0.0],[21.002535617567553,49.23926879232737,0.0],[21.002737705012414,49.23929622669963,0.0],[21.002906778300936,49.23945500989964,0.0],[21.002776489378025,49.239480406268626,0.0],[21.002626617626085,49.23956448187871,0.0],[21.002763685594896,49.239648066179285,0.0],[21.00289849375138,49.239563496316705,0.0],[21.00303782151268,49.23951862251086,0.0],[21.003076323261354,49.23930660361021,0.0],[21.00310296677693,49.2391598785238,0.0],[21.003114264715574,49.239110813102556,0.0],[21.00357261824362,49.238930434659345,0.0],[21.00322689473738,49.238712123511036,0.0],[21.00330073178845,49.23855298336499,0.0],[21.00337802729457,49.23844949210998,0.0],[21.003534543306994,49.238368787796546,0.0],[21.003127679749426,49.237840506441785,0.0],[21.00321651129524,49.23768690519833,0.0],[21.0033468745448,49.23759524814568,0.0],[21.003978696556466,49.23760078222136,0.0],[21.004079387211075,49.23769591814979,0.0],[21.004224437323188,49.23811873911207,0.0],[21.004184446469356,49.23823859842915,0.0],[21.00437595330329,49.23805301668108,0.0],[21.004162900008904,49.23761185937544,0.0],[21.004080985380675,49.23747286521562,0.0],[21.003965234598727,49.237373151667214,0.0],[21.00382602396423,49.23717674701349,0.0],[21.003441088286092,49.2372701695789,0.0],[21.002860417586888,49.23709970086204,0.0],[21.002643146975974,49.23701685825723,0.0],[21.001977492554268,49.237000111869804,0.0],[21.002018639979536,49.236966117312576,0.0],[21.002125957280644,49.236653061742516,0.0],[21.00232248823584,49.23653663036975,0.0],[21.002625080137033,49.23642367073899,0.0],[21.002937964948995,49.236380672815436,0.0],[21.003360966826023,49.236328990986145,0.0],[21.003802061367658,49.23636800257331,0.0],[21.004266553857178,49.23642825555344,0.0],[21.004612816364716,49.23643958650809,0.0],[21.00485332665011,49.23640240576506,0.0],[21.005199574951597,49.236256730002836,0.0],[21.00567335709694,49.23606871674373,0.0],[21.00606034460862,49.235953245791855,0.0],[21.00642404052247,49.235895365280946,0.0],[21.00642548258556,49.2358962146176,0.0],[21.006514820627487,49.235900013009534,0.0],[21.006799763912195,49.23574324338334,0.0],[21.007224655781236,49.235511642413066,0.0],[21.007605062348286,49.23535477364316,0.0],[21.007921743426007,49.23504051356779,0.0],[21.007937816165253,49.235024565539284,0.0],[21.008026026741284,49.234937026110636,0.0],[21.00803863246821,49.23492451636675,0.0],[21.008426441251117,49.23471286293082,0.0],[21.008628225020967,49.23444010136985,0.0],[21.008804537860478,49.23416227450084,0.0],[21.00897904166423,49.234081006408395,0.0],[21.009094546772037,49.234027213021754,0.0],[21.00911955149359,49.23401556855357,0.0],[21.009297107500423,49.233932878295434,0.0],[21.009559828183843,49.23379332073298,0.0],[21.010067199050205,49.23341202862952,0.0],[21.01069865506324,49.2328866459348,0.0],[21.010707588220903,49.23287878208094,0.0],[21.010772220132267,49.23282188697557,0.0],[21.01059198142469,49.232700475880954,0.0],[21.010586542732465,49.23269208746525,0.0],[21.010359710482604,49.23247864130907,0.0],[21.010178081498584,49.23251186282041,0.0],[21.010079587135834,49.23227885245768,0.0],[21.009872514818102,49.23219981777014,0.0],[21.00979004566678,49.23191003785615,0.0],[21.009836502329424,49.23167665216068,0.0],[21.009837974891088,49.231673817546586,0.0],[21.009835032361195,49.23167128156699,0.0],[21.00947727369778,49.23136297235552,0.0],[21.009025932562626,49.23076637414555,0.0],[21.00903634706322,49.230763422247065,0.0],[21.008631631021714,49.230436845420805,0.0],[21.00834445525122,49.23028502201943,0.0],[21.008167381226933,49.230270324101745,0.0],[21.0077063785688,49.23048444465713,0.0],[21.007645665125285,49.23051264327802,0.0],[21.007157278107243,49.23058940179712,0.0],[21.007048768286445,49.23096667916727,0.0],[21.006926172247017,49.23097347343004,0.0],[21.006358773881725,49.23100461087029,0.0],[21.00626876133517,49.231009588596606,0.0],[21.005988140061806,49.23114877811875,0.0],[21.005527028561804,49.231376052093616,0.0],[21.005505772290096,49.231387960697674,0.0],[21.005053509638383,49.231477597677404,0.0],[21.005005834910342,49.2314610024338,0.0],[21.00470602956101,49.23138853031276,0.0],[21.004406634882347,49.231430560039264,0.0],[21.0043222074238,49.23144241103408,0.0],[21.004245790644145,49.231451163374494,0.0],[21.003789806652023,49.23148323465624,0.0],[21.003544830647012,49.231502944540544,0.0]],[[21.002099391344817,49.237120221691455,0.0],[21.00231473951925,49.23712727289833,0.0],[21.002681985764518,49.23716454091203,0.0],[21.002907716065643,49.237237563559944,0.0],[21.003078840371934,49.23731889480376,0.0],[21.003074994900782,49.23736925578543,0.0],[21.00302846315679,49.23757472782526,0.0],[21.002855798386516,49.23761451354998,0.0],[21.00265083387035,49.23737051555188,0.0],[21.002128996565737,49.23733828459352,0.0],[21.002099391344817,49.237120221691455,0.0]],[[20.999757603855127,49.2325582384877,0.0],[20.99919847073758,49.23307072490898,0.0],[20.999090843379093,49.233093260083095,0.0],[20.999034296170798,49.23310509930747,0.0],[20.998779639795053,49.23315841729822,0.0],[20.998722503616676,49.23319116098172,0.0],[20.998109517820986,49.2335424438116,0.0],[20.99791833852383,49.233353963682944,0.0],[20.99841555777478,49.233078961415174,0.0],[20.999024428527857,49.23239557404239,0.0],[20.999210936496286,49.23231188126712,0.0],[20.999757603855127,49.2325582384877,0.0]]],[[[20.997122708233693,49.234637718350385,0.0],[20.997069310297988,49.234288394790894,0.0],[20.997108713588556,49.234096022927645,0.0],[20.996958287378757,49.234059644094444,0.0],[20.997004946218127,49.23394088573543,0.0],[20.997116372790984,49.23386254119578,0.0],[20.997143455323922,49.23359578200577,0.0],[20.996580884371983,49.233258580710554,0.0],[20.99648778066525,49.23253044895952,0.0],[20.996233608379555,49.232431055208856,0.0],[20.99606030573856,49.232126554227314,0.0],[20.996034328878576,49.23199841264261,0.0],[20.995732652052183,49.231967851374144,0.0],[20.99572134963708,49.23231150831223,0.0],[20.995808338246054,49.23246365043752,0.0],[20.99588530990141,49.23276723704887,0.0],[20.99586921057889,49.233031435067836,0.0],[20.99509095663679,49.23304691094065,0.0],[20.995073771262867,49.23337464288734,0.0],[20.99529465239573,49.23358914897598,0.0],[20.995895720677844,49.23393679534111,0.0],[20.995934992730568,49.23411215180783,0.0],[20.996011915711932,49.2341626045453,0.0],[20.99617886023791,49.234272100743546,0.0],[20.99651895152194,49.234511752431246,0.0],[20.996784562393564,49.23481207247704,0.0],[20.996858562147235,49.23485137209653,0.0],[20.997122708233693,49.234637718350385,0.0]]],[[[20.99730211706669,49.23541412399211,0.0],[20.997055577700685,49.23532599368346,0.0],[20.996743112969263,49.235306014372114,0.0],[20.99643623843851,49.235233982024845,0.0],[20.996145741515242,49.235197867929344,0.0],[20.996041555370155,49.23518894244289,0.0],[20.995997743772747,49.235185189761594,0.0],[20.996016977494982,49.235105379526864,0.0],[20.996033639756636,49.23503623275286,0.0],[20.996033900543946,49.23489263402669,0.0],[20.99598012107935,49.234775946294484,0.0],[20.995979282715883,49.2347741271915,0.0],[20.995939371644468,49.23473853086856,0.0],[20.995922923348886,49.234723860162546,0.0],[20.995690083072077,49.23463752657608,0.0],[20.995443471949397,49.23458707694897,0.0],[20.995314668924678,49.23457082315357,0.0],[20.995155702897165,49.23456531953294,0.0],[20.995043342234908,49.23455087432973,0.0],[20.994804768441757,49.23460992986402,0.0],[20.99456610138387,49.23471026079264,0.0],[20.99431652950857,49.234785457041745,0.0],[20.994168466366265,49.234806886866416,0.0],[20.994016335124066,49.234923089436975,0.0],[20.993990055521298,49.23494316262505,0.0],[20.99398911209936,49.234964147457354,0.0],[20.9939872541046,49.23500545274364,0.0],[20.994091408446263,49.23501092367751,0.0],[20.994297005977394,49.235005696868505,0.0],[20.994455973311442,49.23501120165426,0.0],[20.994595787392797,49.23500053848594,0.0],[20.994705454163725,49.23498984924842,0.0],[20.99472183029163,49.235031152343126,0.0],[20.99471351737808,49.23508498780787,0.0],[20.994689955514165,49.23510835630351,0.0],[20.99463936520933,49.23515853122792,0.0],[20.994455549301602,49.235248139542165,0.0],[20.994392421664063,49.23529654799674,0.0],[20.994290923539307,49.23533596362964,0.0],[20.994249552091436,49.23533593209889,0.0],[20.994153869685338,49.23533585938806,0.0],[20.993971651937798,49.23532188096316,0.0],[20.993964753467576,49.235321352057525,0.0],[20.993786673401573,49.23527634421569,0.0],[20.993641493471028,49.23522058595674,0.0],[20.993573046915234,49.23520900501295,0.0],[20.993545572771296,49.23520435616406,0.0],[20.993408467117852,49.235236561253615,0.0],[20.993353089985312,49.235263793644016,0.0],[20.99316428066053,49.23535663205628,0.0],[20.99310384839794,49.235426582590925,0.0],[20.993051690070725,49.23546783291485,0.0],[20.993024196194906,49.23551268383247,0.0],[20.992977455216014,49.235589827037046,0.0],[20.992884122921144,49.23566335200804,0.0],[20.99288397509372,49.235749507181,0.0],[20.992886562720603,49.23583207800951,0.0],[20.99291927295696,49.235930825835446,0.0],[20.992930149027533,49.23597930413492,0.0],[20.993373756274778,49.23623453518998,0.0],[20.99345874703254,49.23622562093356,0.0],[20.99345040513087,49.236293824232256,0.0],[20.993469476939246,49.2363602534289,0.0],[20.993444638071132,49.23644819008427,0.0],[20.993405970835024,49.236609705715175,0.0],[20.99341405827649,49.23668510151276,0.0],[20.993334364783628,49.23679273687993,0.0],[20.993310205270156,49.23686178942889,0.0],[20.993300041128965,49.23689084171242,0.0],[20.993284766078666,49.23693450021685,0.0],[20.99332375092327,49.236965904913,0.0],[20.99338162304109,49.237012521657405,0.0],[20.9934252048203,49.23708591250409,0.0],[20.993425347339468,49.23708615216117,0.0],[20.993427173963237,49.23709140506667,0.0],[20.99344602291437,49.23714562600878,0.0],[20.99345175843983,49.237162122360324,0.0],[20.993454636141113,49.23717040237277,0.0],[20.993473686101947,49.23722519529478,0.0],[20.99347715665152,49.23723517833221,0.0],[20.99348523093411,49.23731595748069,0.0],[20.99347577555746,49.23733582293338,0.0],[20.993386169591165,49.23752409817221,0.0],[20.993281540746604,49.23778428174129,0.0],[20.99322826942075,49.23790078081604,0.0],[20.993196209992952,49.23797089567243,0.0],[20.993185416920895,49.23810219635073,0.0],[20.993179935127436,49.23816887923778,0.0],[20.99317939070667,49.23817550560561,0.0],[20.993242200029385,49.23830658970192,0.0],[20.993247000309452,49.23830980019199,0.0],[20.993262924978627,49.238320450404245,0.0],[20.993529696127357,49.23849886851082,0.0],[20.993702781883844,49.238662310174426,0.0],[20.99372946090401,49.23868750203551,0.0],[20.993733099974083,49.23869113624819,0.0],[20.99379900966967,49.23862656528708,0.0],[20.993895056755168,49.23857279123564,0.0],[20.994023909835175,49.238567503634215,0.0],[20.99414454195763,49.23855862399996,0.0],[20.994212999449324,49.238596369381085,0.0],[20.994286942496913,49.23863771587218,0.0],[20.994415704386448,49.23868088811578,0.0],[20.994506158130427,49.2386899331985,0.0],[20.9946596505727,49.2387026131221,0.0],[20.994782900097604,49.23875835235374,0.0],[20.994900663315903,49.23882126691181,0.0],[20.99506231329424,49.238873449082895,0.0],[20.995144501952662,49.2389341266954,0.0],[20.995152864367196,49.23893369700307,0.0],[20.995248770188674,49.23894049854303,0.0],[20.995254263754735,49.23894992486252,0.0],[20.995399562697113,49.238946444661565,0.0],[20.995454419019755,49.2389285365863,0.0],[20.995616174851115,49.23892507379652,0.0],[20.995709300115596,49.23896821894512,0.0],[20.99572659990069,49.238986568262625,0.0],[20.995926659581862,49.239015438963655,0.0],[20.99612125137583,49.239042510335,0.0],[20.996346044955093,49.239035496161954,0.0],[20.996518836974204,49.23899075514438,0.0],[20.996569575617855,49.23899086698618,0.0],[20.996604200982123,49.23899094374947,0.0],[20.99671712689183,49.23898208061398,0.0],[20.99708072853308,49.23895354152123,0.0],[20.9970806116117,49.23901930554292,0.0],[20.997079290479864,49.239062611693406,0.0],[20.997074804546102,49.239209573700705,0.0],[20.997099290588512,49.23931369507453,0.0],[20.997183191137562,49.23943627609826,0.0],[20.997282711375977,49.23945627580133,0.0],[20.997362209418256,49.23945633451275,0.0],[20.99742804970664,49.23943125914577,0.0],[20.997565204591336,49.23938109872281,0.0],[20.997633783644513,49.2393343923987,0.0],[20.999125831899644,49.23973913496761,0.0],[21.000104377161506,49.240004566147356,0.0],[21.000072327719906,49.24004250891202,0.0],[21.000071671657487,49.24004328508132,0.0],[21.00014287480685,49.240090002646475,0.0],[21.000318303080558,49.2400991073015,0.0],[21.000458095225504,49.240112843062754,0.0],[21.00046653866265,49.24010266361117,0.0],[21.00055434316628,49.24012580038814,0.0],[21.000843295026293,49.24020193931772,0.0],[21.00105949501217,49.2402606073395,0.0],[21.00106111419555,49.24026104660375,0.0],[21.00111211152556,49.24027488453794,0.0],[21.00159804208067,49.23980987195815,0.0],[21.00163470931664,49.239774783644684,0.0],[21.00189952555206,49.23969368667064,0.0],[21.001687937774864,49.239701090970165,0.0],[21.00181446626187,49.23957811183208,0.0],[21.001889496658304,49.239459172886534,0.0],[21.00194706389586,49.239458022314025,0.0],[21.0019762523246,49.239457439566955,0.0],[21.001823299064476,49.239326631111496,0.0],[21.00167574806475,49.239200440517166,0.0],[21.00119536049282,49.238721324954646,0.0],[21.001042873215784,49.23837763791588,0.0],[21.00082925185806,49.23806570910151,0.0],[21.000531590578724,49.23780819640964,0.0],[21.00045475660696,49.23778302587733,0.0],[20.999958159594826,49.23762033511633,0.0],[20.999400013248327,49.23750058335372,0.0],[20.999048127602524,49.23732663787151,0.0],[20.99877073621693,49.23699298888073,0.0],[20.99866435460841,49.236636404149095,0.0],[20.99861170383079,49.23632875621767,0.0],[20.998413361701818,49.23611221535406,0.0],[20.998410865533938,49.236108394578636,0.0],[20.99838641607116,49.23611193615587,0.0],[20.99837887237049,49.236113029413964,0.0],[20.998372662177818,49.23611583284217,0.0],[20.99747741529061,49.235996092897466,0.0],[20.99747772653246,49.235870281475634,0.0],[20.997478673314674,49.23548701274493,0.0],[20.997353224205845,49.23546753205674,0.0],[20.99730211706669,49.23541412399211,0.0]],[[21.00062690304447,49.240024776372465,0.0],[21.00067319958414,49.23996063426063,0.0],[21.00072005367492,49.23980450894511,0.0],[21.00081821151748,49.23981144802565,0.0],[21.00107913402869,49.239829891878294,0.0],[21.001015007096363,49.23996553692934,0.0],[21.00100758722911,49.23999318511093,0.0],[21.000834663433395,49.24006757611809,0.0],[21.000782639866802,49.24008995492859,0.0],[21.000671877744477,49.24010330349034,0.0],[21.00055434316628,49.24012580038814,0.0],[21.00062690304447,49.240024776372465,0.0]]],[[[21.002859541518426,49.24065245317833,0.0],[21.0026541453063,49.2403153538128,0.0],[21.00258301989403,49.23986935879979,0.0],[21.00246320949877,49.23972057808737,0.0],[21.002307196096275,49.239660629767236,0.0],[21.00227001014915,49.23966408195437,0.0],[21.00212765849091,49.239677297740734,0.0],[21.001982325415145,49.23969078844504,0.0],[21.00197179101931,49.23969115740407,0.0],[21.00213955494883,49.23980089567392,0.0],[21.00232045062162,49.239919222158186,0.0],[21.0023018643999,49.2400649955448,0.0],[21.001887812861362,49.24011974960217,0.0],[21.001698247102468,49.24045509989093,0.0],[21.00160975043157,49.24094210912413,0.0],[21.001664466063936,49.24091871343513,0.0],[21.001748726178118,49.24089377434305,0.0],[21.00187017263741,49.2408578287365,0.0],[21.002329933534618,49.24060546884511,0.0],[21.002279167180838,49.24067463198562,0.0],[21.00252300742765,49.240535776850656,0.0],[21.00276800329544,49.24062110769961,0.0],[21.0028295959545,49.240642559839706,0.0],[21.00284074897073,49.240646444244,0.0],[21.002859541518426,49.24065245317833,0.0]]],[[[21.179619004313526,49.144175066645815,0.0],[21.17953862386961,49.14409253695837,0.0],[21.179509957038185,49.14403072265455,0.0],[21.179508073013057,49.14396539465456,0.0],[21.179552824657833,49.14389717503041,0.0],[21.179671632514893,49.14381386658766,0.0],[21.17987092562445,49.14369695816673,0.0],[21.179871075182945,49.14366964280473,0.0],[21.179871848618948,49.143526634681415,0.0],[21.179866960356005,49.14343629535672,0.0],[21.17984319796391,49.143395468480364,0.0],[21.17980984718492,49.14335076681387,0.0],[21.17980492327699,49.14334416714622,0.0],[21.179749240014825,49.143282877765174,0.0],[21.179726804883106,49.143208768730055,0.0],[21.1797001538289,49.14312073812242,0.0],[21.17970589438164,49.14303835082753,0.0],[21.179730655992017,49.14294252233429,0.0],[21.179772451016266,49.14283664011041,0.0],[21.17978419044495,49.14280461728122,0.0],[21.179803684177053,49.14277693308773,0.0],[21.179831922232914,49.142752294268945,0.0],[21.17986064664561,49.1427272313503,0.0],[21.179902339145936,49.14269348727011,0.0],[21.180020981181077,49.14259746126894,0.0],[21.18002469161224,49.14259445806869,0.0],[21.180028231965366,49.14258560168125,0.0],[21.180034502375364,49.142569918771024,0.0],[21.18003180893509,49.142564801344164,0.0],[21.180030773287463,49.14256283345839,0.0],[21.18001779018685,49.142538175197075,0.0],[21.179965003650324,49.14248097080629,0.0],[21.17994474246071,49.1424365319281,0.0],[21.179942592773045,49.14239531535044,0.0],[21.179950759047713,49.14235449353636,0.0],[21.17995513556158,49.142321655187494,0.0],[21.179977147563132,49.142279709157975,0.0],[21.17999947895108,49.14222525097542,0.0],[21.180009137232236,49.14220837773231,0.0],[21.18002756419802,49.14217618510933,0.0],[21.180032098237586,49.14216870294626,0.0],[21.18005441292742,49.14213187875636,0.0],[21.180055672276076,49.14213029684874,0.0],[21.18009216531791,49.14208442964569,0.0],[21.180118944232365,49.142052013079024,0.0],[21.180125872814266,49.14202634834512,0.0],[21.180126063741756,49.14199464836354,0.0],[21.180099760454066,49.141951784918795,0.0],[21.180064979251636,49.14191286028654,0.0],[21.180019690472516,49.14188031358777,0.0],[21.180012076064475,49.14187388181015,0.0],[21.17983362080978,49.14176060540076,0.0],[21.179803933646156,49.14174176116071,0.0],[21.179743907498743,49.14170077093663,0.0],[21.179654790038594,49.141639915277565,0.0],[21.179615111987218,49.14160890329786,0.0],[21.179591127029887,49.141581893217975,0.0],[21.17957559962873,49.141553320308304,0.0],[21.179504636092304,49.14137430168547,0.0],[21.179499744096447,49.14136196224681,0.0],[21.179455776629748,49.14124613167401,0.0],[21.17944279663197,49.14119854374293,0.0],[21.17943950792282,49.14114544449827,0.0],[21.17944748296234,49.14102816946763,0.0],[21.179447840737236,49.14097190749782,0.0],[21.179426302085,49.14094014869791,0.0],[21.179387873585135,49.14090516970167,0.0],[21.179324128269972,49.14085982905879,0.0],[21.179214636797827,49.14079295476815,0.0],[21.179156881644875,49.14075713682735,0.0],[21.179083506632317,49.14070780375543,0.0],[21.179008055226713,49.14064966444641,0.0],[21.178989480528365,49.14063923466116,0.0],[21.178895974400277,49.14056368698996,0.0],[21.178811976137894,49.14047628373459,0.0],[21.178799205414865,49.14046277944064,0.0],[21.178703978598342,49.14036208570329,0.0],[21.17855073006351,49.14022356044029,0.0],[21.17839338066124,49.140084438461955,0.0],[21.178329629139967,49.14004147360495,0.0],[21.17828880377001,49.14000173797804,0.0],[21.17820498468553,49.13988659479253,0.0],[21.178149821766826,49.13982383258992,0.0],[21.17809704837334,49.13976425094226,0.0],[21.177975958785126,49.13965031744298,0.0],[21.177955080971017,49.13963024594834,0.0],[21.177942391691637,49.1396183257919,0.0],[21.17767471163918,49.13935401086088,0.0],[21.176953468453974,49.140269881313245,0.0],[21.17690943569486,49.140339530514105,0.0],[21.17608650986513,49.142515462849026,0.0],[21.175809714322398,49.14324730672681,0.0],[21.175704392851518,49.14329595195665,0.0],[21.17582862186668,49.14367577812926,0.0],[21.175988428390802,49.143863524967365,0.0],[21.17609156247326,49.14398468929696,0.0],[21.176563400016505,49.14439484518254,0.0],[21.176625260255737,49.14445367659566,0.0],[21.177061612624133,49.144748352359805,0.0],[21.177184544412818,49.144831368930355,0.0],[21.177233194804895,49.1448643099824,0.0],[21.177586180315096,49.1450296603169,0.0],[21.17796952399589,49.14528328076941,0.0],[21.17807141001174,49.145350407518166,0.0],[21.17810743539794,49.145374142487434,0.0],[21.178119714538404,49.145382231855734,0.0],[21.17830449352964,49.145503968826496,0.0],[21.178446347687036,49.14541244535673,0.0],[21.179366536293646,49.14481872338721,0.0],[21.179272749823852,49.14473353522797,0.0],[21.17942063661623,49.14454659460385,0.0],[21.179489163905373,49.14444956991994,0.0],[21.179445877606785,49.14438567688272,0.0],[21.17967672800149,49.14433597849929,0.0],[21.179619004313526,49.144175066645815,0.0]]],[[[21.17754598757028,49.17127715072185,0.0],[21.177521663600203,49.17141331449056,0.0],[21.177116948984967,49.171611034642,0.0],[21.177122296528946,49.17210702893559,0.0],[21.177123327449507,49.17220259311902,0.0],[21.176868524236312,49.172191019016246,0.0],[21.176869331823564,49.172425300573025,0.0],[21.176645659392634,49.17240929887844,0.0],[21.17658997846354,49.172325405230964,0.0],[21.176525727848055,49.17228850836178,0.0],[21.17640613205436,49.172207697856955,0.0],[21.176249052217855,49.172194679698805,0.0],[21.17619899495573,49.172202884849405,0.0],[21.1761888186306,49.172106911931785,0.0],[21.176046289353373,49.17195859608043,0.0],[21.17551307025425,49.172391839387316,0.0],[21.175409250671102,49.17275357095178,0.0],[21.175361116616106,49.17292127803762,0.0],[21.174823447647643,49.173492647314724,0.0],[21.174764521269907,49.17355526604358,0.0],[21.174617865892795,49.17364235686663,0.0],[21.174323656538093,49.173817072498686,0.0],[21.173784532220235,49.1741372247443,0.0],[21.17346341281066,49.174327914373265,0.0],[21.17304830105768,49.174574414458945,0.0],[21.173721151143194,49.17500734764226,0.0],[21.17373410942273,49.17501568528895,0.0],[21.1741263407983,49.17526805292475,0.0],[21.17511377777775,49.175903368996465,0.0],[21.17523729624406,49.17582117320933,0.0],[21.17529664533407,49.17586115076075,0.0],[21.17553401674481,49.176021039142086,0.0],[21.17556269400183,49.17617596562585,0.0],[21.175678131515266,49.176195331811265,0.0],[21.175930636089383,49.176380219334874,0.0],[21.176565434541583,49.17596494105469,0.0],[21.177008747709298,49.175670984013756,0.0],[21.17760372157603,49.17515388776781,0.0],[21.177723951551613,49.17484141861004,0.0],[21.178023632367655,49.17406253665369,0.0],[21.17790572055137,49.17403004120724,0.0],[21.17775979239139,49.17385425411056,0.0],[21.17790396372069,49.17186143375982,0.0],[21.17796080210656,49.170931117558766,0.0],[21.17754598757028,49.17127715072185,0.0]]],[[[21.145144564557516,49.192312737920496,0.0],[21.14447588195649,49.19237490817338,0.0],[21.144421954232936,49.19235736231204,0.0],[21.14247586078762,49.19227189074943,0.0],[21.142475827680315,49.19245544841041,0.0],[21.142546318417516,49.19261017575404,0.0],[21.142754677229615,49.1928476667836,0.0],[21.143278618698414,49.19327669969525,0.0],[21.14354614584279,49.19344367748,0.0],[21.143925722008415,49.19357755174184,0.0],[21.14435987387547,49.193761310105295,0.0],[21.144708103285108,49.19395918980461,0.0],[21.14475598398097,49.19399267854347,0.0],[21.14498403137639,49.194152176478866,0.0],[21.1453710263363,49.19445255452032,0.0],[21.145759338943435,49.19477808899615,0.0],[21.14586161924807,49.19491536098671,0.0],[21.145840491093118,49.19500291857975,0.0],[21.146009779540396,49.195219095241086,0.0],[21.145966161199677,49.19637785061044,0.0],[21.145964862471754,49.196403015988736,0.0],[21.14612164158516,49.196892383600286,0.0],[21.146131746305798,49.196923920351225,0.0],[21.146136062058012,49.19693739242213,0.0],[21.146167574156532,49.1970186846898,0.0],[21.1462275291586,49.19717334761657,0.0],[21.14618054662217,49.19728187344459,0.0],[21.146235485328123,49.19768600988148,0.0],[21.146229380528208,49.197799066659236,0.0],[21.146372580524346,49.198091927020364,0.0],[21.146588977116927,49.19809704186301,0.0],[21.146841394556798,49.19794647109743,0.0],[21.147505858858075,49.19788469224247,0.0],[21.14818093765551,49.197474315332514,0.0],[21.148667510687222,49.197354438454454,0.0],[21.148963939632367,49.19725170212399,0.0],[21.14915016978681,49.19725604166073,0.0],[21.149587060563068,49.19694077532261,0.0],[21.1498649399699,49.196824939208106,0.0],[21.14995029876593,49.196666937787455,0.0],[21.14997300024691,49.19666270182188,0.0],[21.149967149318602,49.19663010940746,0.0],[21.14986742052815,49.19574850758502,0.0],[21.149602120478054,49.19340305752717,0.0],[21.148591420069792,49.1927818142961,0.0],[21.14847582409286,49.19268742582167,0.0],[21.147705748655827,49.19211742078248,0.0],[21.14744617083175,49.19219943969818,0.0],[21.146954946875727,49.192306651259,0.0],[21.14647294378342,49.19224148527405,0.0],[21.146423066701814,49.192251074945375,0.0],[21.145144564557516,49.192312737920496,0.0]]],[[[21.007706779566018,49.224625761544054,0.0],[21.007706338529683,49.224625650786194,0.0],[21.007470591361457,49.22456643876872,0.0],[21.006982921608614,49.22441816399873,0.0],[21.006823256710902,49.224369617067,0.0],[21.006768558727728,49.224352986069945,0.0],[21.006220966061527,49.22423575064452,0.0],[21.006172689453336,49.22436014185742,0.0],[21.00617268260322,49.224360231663276,0.0],[21.005946826402667,49.224996470149286,0.0],[21.00668939063874,49.22519092126259,0.0],[21.00646502386703,49.225483292881506,0.0],[21.00640333932737,49.225563634031815,0.0],[21.006254097736075,49.22575800698505,0.0],[21.00600226332631,49.22608603123788,0.0],[21.00571456327952,49.22646068814939,0.0],[21.00563403004667,49.22656555569892,0.0],[21.005523626533087,49.22670931634208,0.0],[21.005342760142668,49.22694485937282,0.0],[21.005178379911634,49.227158884385396,0.0],[21.00503994720647,49.2273390960114,0.0],[21.005003925860333,49.22738599394728,0.0],[21.004979958259177,49.22741726015852,0.0],[21.00488506742968,49.22760691033122,0.0],[21.004721898924785,49.22793288173023,0.0],[21.00467268090079,49.228003205568214,0.0],[21.004982391520564,49.22827343938857,0.0],[21.00506150726085,49.22833013681011,0.0],[21.005038452842673,49.228864613009605,0.0],[21.00503841864968,49.228866862639,0.0],[21.005038446131366,49.22886830401745,0.0],[21.00504055501076,49.22918113792936,0.0],[21.004421496549508,49.22934904063984,0.0],[21.004487871289268,49.229542076821986,0.0],[21.005097268147864,49.229464787709304,0.0],[21.00525105045935,49.229305064963185,0.0],[21.00559565194202,49.229274927502274,0.0],[21.005681251778466,49.22924846801391,0.0],[21.00601662660593,49.22914465216467,0.0],[21.006452060651704,49.22889690933912,0.0],[21.006935108694815,49.2290827775337,0.0],[21.00718551808641,49.229179107052346,0.0],[21.0076248966506,49.22934823778604,0.0],[21.00829031497742,49.22943130685475,0.0],[21.008422447168986,49.22932756041867,0.0],[21.008791282187477,49.2293803167004,0.0],[21.0088687845611,49.229541118402246,0.0],[21.009744187956077,49.229470250597174,0.0],[21.00991118450885,49.229272220727815,0.0],[21.01043326614363,49.229307370796434,0.0],[21.01103277189207,49.22928182437753,0.0],[21.011468774076306,49.229229036704794,0.0],[21.01163450031386,49.22907450588907,0.0],[21.011703222178255,49.22894052298448,0.0],[21.01176684568941,49.22898582843056,0.0],[21.011832681865478,49.22899207029448,0.0],[21.01188694356486,49.22892389820908,0.0],[21.01186026011158,49.22886985952058,0.0],[21.01186950463547,49.22883950558999,0.0],[21.011948912720683,49.228860763870806,0.0],[21.012292738880888,49.228989709601414,0.0],[21.012297427906223,49.228991658864196,0.0],[21.01250964657021,49.228959000660964,0.0],[21.01250949754585,49.22894897191088,0.0],[21.01251135161554,49.2284644460531,0.0],[21.012515824961724,49.227434207969836,0.0],[21.01249395737348,49.226800979356156,0.0],[21.01219316412593,49.226046420253,0.0],[21.012059040499594,49.22567868788022,0.0],[21.012053598096546,49.225637470966205,0.0],[21.012053275504368,49.225635028726536,0.0],[21.012196234177484,49.225590981509704,0.0],[21.01252743447031,49.22555762195338,0.0],[21.012589577146677,49.22555133231416,0.0],[21.012949582043092,49.22542946723139,0.0],[21.01370776067783,49.225172811539686,0.0],[21.01381632578358,49.225127739159596,0.0],[21.01373638955565,49.22509761568922,0.0],[21.013638850011194,49.22505906940072,0.0],[21.013554937708633,49.22501402769269,0.0],[21.012780961609508,49.22495024163349,0.0],[21.012557781815268,49.22493184785088,0.0],[21.012455605941515,49.22492737653956,0.0],[21.012181277129795,49.224915375936845,0.0],[21.012180746972543,49.22491535231435,0.0],[21.011629991518443,49.22489119508599,0.0],[21.01123175352002,49.2248747833059,0.0],[21.011037763244822,49.224867251829025,0.0],[21.010943832817503,49.224863349348844,0.0],[21.010185089569898,49.22483182063555,0.0],[21.009565992846497,49.2248033408954,0.0],[21.009564234271306,49.224803203275954,0.0],[21.00872694610062,49.224737620001285,0.0],[21.008726980461866,49.224737746266385,0.0],[21.008467932968358,49.22472179090524,0.0],[21.008095699398805,49.224698631940264,0.0],[21.00796501210819,49.22469061962121,0.0],[21.007706779566018,49.224625761544054,0.0]],[[21.0082997911511,49.228687789277366,0.0],[21.008326351800573,49.228636717874814,0.0],[21.00845844475649,49.228538903115336,0.0],[21.008671663899623,49.228525540129176,0.0],[21.008662250090193,49.22862985856449,0.0],[21.008653562452647,49.228726147581554,0.0],[21.008729990138804,49.228769010512785,0.0],[21.008811356120834,49.22876292724778,0.0],[21.008886381976385,49.22869187105813,0.0],[21.008903248012555,49.22857841968617,0.0],[21.00923029163915,49.228543712057885,0.0],[21.009180920024413,49.228850923184616,0.0],[21.00908503271778,49.22888150438356,0.0],[21.009003279962396,49.2288604510516,0.0],[21.00895940653489,49.22886044177583,0.0],[21.008814625181316,49.228946593007585,0.0],[21.00873095069574,49.228973559719456,0.0],[21.00848345789887,49.22892629610967,0.0],[21.008472687023634,49.228858086701884,0.0],[21.008454052499538,49.22870272075074,0.0],[21.008318106843372,49.22871141512643,0.0],[21.0082997911511,49.228687789277366,0.0]]],[[[21.09677794230145,49.2623955393159,0.0],[21.096798750956555,49.262444178634134,0.0],[21.096860585523206,49.26253250789495,0.0],[21.096818947870567,49.26268271388438,0.0],[21.09678710887601,49.26275220642119,0.0],[21.096651199449575,49.26316083127003,0.0],[21.09665594477648,49.263245610757025,0.0],[21.096619796064825,49.26333720949373,0.0],[21.0965233557756,49.26338530561209,0.0],[21.09632119896078,49.263667483621056,0.0],[21.09628096141262,49.26377971287013,0.0],[21.096304106269358,49.26381409874595,0.0],[21.096369709224703,49.263877827242105,0.0],[21.09663482881732,49.2636214070158,0.0],[21.096739863220737,49.2633527089693,0.0],[21.09692532066009,49.26303292310834,0.0],[21.09726101961218,49.26244129018234,0.0],[21.097220821037222,49.26235933303357,0.0],[21.097049066944532,49.26200916447413,0.0],[21.09686181446394,49.26187319433214,0.0],[21.09681744059286,49.26184108006539,0.0],[21.09677855082988,49.26193841406626,0.0],[21.09676708792977,49.262064531587036,0.0],[21.096730749859145,49.262127934479025,0.0],[21.096846671170457,49.262260202046676,0.0],[21.096845364629896,49.26234331830428,0.0],[21.09677794230145,49.2623955393159,0.0]]],[[[21.095874954683048,49.26440592268164,0.0],[21.09620863273044,49.26403361417506,0.0],[21.0962754675146,49.26396897579762,0.0],[21.096097358292933,49.26388259685137,0.0],[21.095962033424875,49.26386228493912,0.0],[21.095937305373557,49.263910833556565,0.0],[21.095857742680423,49.26401567573173,0.0],[21.095770250011448,49.26402726719577,0.0],[21.09578675910823,49.264389603479415,0.0],[21.095839609500498,49.26440029310249,0.0],[21.095874954683048,49.26440592268164,0.0]]]]}}]}