{"type":"FeatureCollection","name":"tmpmjp0d5kh","features":[{"type":"Feature","properties":{"NATIONALSITECODE":"512","SITETITLE_SK":"NPR Čergovská javorina","AREA_HA":10.6071,"category_code":"NPR"},"geometry":{"type":"Polygon","coordinates":[[[21.177755398791156,49.17376942275334],[21.177749540003088,49.173850362432376],[21.177895469421006,49.17402615048427],[21.177897979774478,49.174026842062126],[21.178013381222108,49.17405864594135],[21.177911608768017,49.17441110961937],[21.177752461532936,49.17484757968856],[21.17765039878075,49.17512476613268],[21.177620040037862,49.17519361639819],[21.177595910671656,49.17524833730959],[21.17751678707025,49.17533534516851],[21.177253478576485,49.17557765885428],[21.177052003320384,49.17572049381142],[21.176994553707292,49.175749983259685],[21.176635144291254,49.17593447185263],[21.176555149322247,49.17596102396367],[21.175920340328556,49.17637629556035],[21.175962425975374,49.176440723310094],[21.17608003947764,49.17662077461707],[21.17613369258247,49.17670290876764],[21.17609701817935,49.17671445583923],[21.17599091291168,49.176747862983746],[21.175910907163544,49.17667348483802],[21.175421845902072,49.176218819292224],[21.175196670277398,49.175992934118746],[21.175169509847386,49.175965685911336],[21.175103480543044,49.175899448695915],[21.17411604617903,49.175264137108755],[21.173723816188435,49.17501177037741],[21.1737108566071,49.17500343178846],[21.173086795918614,49.17460189426192],[21.173038007767786,49.17457050217798],[21.173453124759394,49.17432400589166],[21.17377424946839,49.17413331915592],[21.173788428361938,49.17412489966258],[21.174313381640047,49.17381317260217],[21.174453836843725,49.17372976702975],[21.174607596292795,49.17363845986095],[21.174754252981703,49.17355136999134],[21.174813180672572,49.173488752208335],[21.175342968367016,49.172925778336094],[21.1753508615254,49.172917390546054],[21.17535774836284,49.17289339028376],[21.17536407499225,49.17287135116214],[21.175375343535595,49.172832090744926],[21.175398996850486,49.1727496853025],[21.175482521071523,49.17245869847903],[21.175502821652895,49.17238795840706],[21.17603604993385,49.1719547217315],[21.176045186805247,49.17201657810373],[21.176051924412576,49.172062207671466],[21.17606731494022,49.17216644127259],[21.17616433270211,49.17225958873451],[21.17623881019186,49.17219080258917],[21.17627593642635,49.17219388023174],[21.176395894189362,49.172203819991694],[21.17644792511387,49.17234912397128],[21.176539375663495,49.17235648708892],[21.176603043341647,49.172539962468676],[21.176672681060293,49.172537772098146],[21.176674739849933,49.17253770599499],[21.176680367360262,49.1725269597696],[21.176830366693597,49.17224046777366],[21.176858286210827,49.17218714298803],[21.17705468134069,49.172196064869084],[21.177113090773247,49.172198717156235],[21.177112061111423,49.17210315481124],[21.177107657490115,49.171694338270235],[21.177106721496333,49.17160716615987],[21.17749037830558,49.17141974012787],[21.17751144277623,49.17140944895148],[21.17751901142467,49.171367082987395],[21.1775357666417,49.17127328698032],[21.1779505864371,49.170927257615425],[21.17794779700029,49.170972912172004],[21.17789373755968,49.17185756449346],[21.177755398791156,49.17376942275334]]]}},{"type":"Feature","properties":{"NATIONALSITECODE":"498","SITETITLE_SK":"NPR Becherovská tisina","AREA_HA":24.2742,"category_code":"NPR"},"geometry":{"type":"Polygon","coordinates":[[[21.27822008468497,49.444065419520676],[21.278181542683352,49.44419584108412],[21.278141169428324,49.44433259759876],[21.278123200812455,49.44434069458221],[21.277632751479445,49.44456194207977],[21.277200575637252,49.444844894061305],[21.274696090627145,49.44347148977275],[21.274495250659484,49.44316137101377],[21.274448745353368,49.44308948875016],[21.2749761621417,49.442870543659936],[21.27621899051791,49.442168770894654],[21.277258599266546,49.44160286552164],[21.27729564878208,49.44158265526943],[21.27789902732249,49.44112595233613],[21.2785552090458,49.440603969820245],[21.279246005554597,49.43999680579683],[21.27950173550798,49.43977205565295],[21.28033234104526,49.43857057925038],[21.280345437825655,49.438502841306246],[21.280408951098543,49.438176332671624],[21.28057922390501,49.43729933965523],[21.280625364336977,49.437061860768864],[21.281002103901884,49.4361012832513],[21.28100432381301,49.43610306045343],[21.28177408828736,49.43673143086689],[21.282079057708525,49.43699815153733],[21.282635123794126,49.4373866744013],[21.282739398148745,49.43745948871581],[21.283451866807447,49.43808287515109],[21.283831271129998,49.438411422139595],[21.284021628706462,49.438576209915695],[21.284075588894236,49.43862293199288],[21.283589922170663,49.43869835876904],[21.283221485330678,49.439148055214694],[21.282942500716405,49.43960135297165],[21.282991365934663,49.44012197752797],[21.282763079833025,49.44068724239069],[21.28239790621332,49.44120336871637],[21.282531842544483,49.441591196030664],[21.282308677753537,49.44204536869466],[21.28130419705852,49.44217603492065],[21.28042853153139,49.44268086709444],[21.280348508918188,49.44272696077044],[21.280236091281846,49.44287729088369],[21.28010134112437,49.44318445442308],[21.280057695016136,49.44328385048259],[21.27959355722663,49.44359734613566],[21.278978903011073,49.444012494430744],[21.278472700230033,49.44400123598182],[21.278338676348437,49.443960370392084],[21.27822008468497,49.444065419520676]]]}},{"type":"Feature","properties":{"NATIONALSITECODE":"553","SITETITLE_SK":"NPR Hradová hora","AREA_HA":13.4669,"category_code":"NPR"},"geometry":{"type":"Polygon","coordinates":[[[21.177932499677972,49.13961465020185],[21.177945187585195,49.139626570316615],[21.17796606539394,49.13964664181318],[21.178087153582364,49.13976057528073],[21.178139926960466,49.13982015693331],[21.178195091232016,49.139882919183876],[21.17827890755003,49.13999806229172],[21.17831973290934,49.14003779792234],[21.17838348441781,49.14008076278503],[21.178540832412885,49.140219884734975],[21.178694080909878,49.140358410012006],[21.17880207705047,49.14047260801043],[21.17888607665887,49.14056001131643],[21.17897958002765,49.14063555891048],[21.178998154722645,49.140645988697386],[21.17907360611163,49.14070412801325],[21.179146981109454,49.14075346109181],[21.179204736251396,49.140789279037726],[21.179291614899412,49.14084234292408],[21.179314226333865,49.14085615329534],[21.17937797163573,49.140901493944],[21.17941640006074,49.14093647384196],[21.179437938770533,49.140968231745696],[21.17943758098451,49.1410244937159],[21.17943116895437,49.1411187763569],[21.179429604553253,49.14114176870386],[21.179432894620636,49.141194867992006],[21.179445873304427,49.14124245498349],[21.179489839376156,49.141358285517995],[21.17956569349631,49.14154964354447],[21.17958122089075,49.141578216455684],[21.179605204472075,49.141605226494946],[21.17964488251459,49.141636238478235],[21.17979402609187,49.14173808437492],[21.179795644627532,49.141739111760714],[21.179823713249757,49.141756928617575],[21.180002167100845,49.14187020500017],[21.180009781507117,49.14187663677847],[21.180055070276705,49.14190918348137],[21.18008985146904,49.14194810811679],[21.18011615611546,49.141990971606944],[21.18011596381267,49.1420226715459],[21.180109035226135,49.14204833627938],[21.180082254938068,49.14208075280118],[21.180045761889563,49.14212662000138],[21.18004450247543,49.1421282028071],[21.18001765380433,49.14217250825994],[21.17999922546433,49.14220470083872],[21.17998956718049,49.14222157408113],[21.179967235717978,49.14227603316036],[21.17994522377487,49.142317978290095],[21.17994084725478,49.142350816638775],[21.1799326796035,49.142391638409656],[21.179934829282832,49.142432854987796],[21.179955090462286,49.14247729386802],[21.18000787698385,49.142534498263686],[21.180021894422087,49.14256112347116],[21.180024587861194,49.1425662408983],[21.180014777093827,49.14259078019535],[21.18001106666234,49.14259378339523],[21.179850730742917,49.14272355342097],[21.179793768203055,49.142773256052045],[21.17977427590112,49.14280093938871],[21.179762533728752,49.142832962131465],[21.179720738686296,49.14293884435249],[21.179695975689512,49.14303467280147],[21.17969023512077,49.143117060096394],[21.17971688478664,49.14320509066413],[21.179739319902097,49.143279199701695],[21.179795001779254,49.143340489045045],[21.179833276453387,49.14339179038288],[21.17985703883579,49.1434326172615],[21.179861927080424,49.143522956587276],[21.179861152246964,49.143665964668614],[21.179861002617763,49.143693280929085],[21.179661708259996,49.14381018749449],[21.179542899025325,49.14389349588487],[21.17949814600093,49.14396171546284],[21.179500030012917,49.14402704346343],[21.17952869683012,49.14408885777016],[21.1796090758831,49.144171387422126],[21.179666798100744,49.14433230013708],[21.17947037869854,49.14437458668648],[21.179435947711816,49.14438199850108],[21.179455033138442,49.14441016867064],[21.179479234060054,49.14444589064426],[21.179410705387138,49.14454291528014],[21.179262815829386,49.14472985580723],[21.179356602210603,49.14481504487326],[21.178436406898523,49.14540876385936],[21.178294551363347,49.14550028727468],[21.178109773778,49.145378550330165],[21.178097496009098,49.14537046100361],[21.178061469260935,49.14534672598819],[21.177959583134708,49.14527960102662],[21.17757624096488,49.1450259796842],[21.17722325681529,49.144860630259316],[21.17717460643305,49.14482768920287],[21.176615323758124,49.144449996860516],[21.176553463534795,49.14439116544168],[21.176081628843278,49.14398100959854],[21.175990985726216,49.14387451857574],[21.17597849616101,49.14385984530217],[21.175818691054133,49.14367209849197],[21.175694464861092,49.14329227239183],[21.175723494829086,49.14327886443902],[21.175799786269163,49.14324362806884],[21.17607658878388,49.14251178442407],[21.176093375118334,49.142467402281945],[21.1768507985057,49.140464716617466],[21.17689953409066,49.1403358536427],[21.176943568229603,49.140266204488],[21.17694511765684,49.14026423829459],[21.176969146709617,49.14023372579062],[21.17766481969602,49.13935033524616],[21.177932499677972,49.13961465020185]]]}},{"type":"Feature","properties":{"NATIONALSITECODE":"513","SITETITLE_SK":"NPR Čergovský Minčol","AREA_HA":177.6839,"category_code":"NPR"},"geometry":{"type":"Polygon","coordinates":[[[21.012112493280664,49.22894894899021],[21.011359155866042,49.22942012907851],[21.01098626772993,49.229554602760096],[21.01053444366421,49.23044895595801],[21.00943279284532,49.23077477704238],[21.009347956134256,49.230986004072754],[21.01063221221964,49.232868002524555],[21.010214476182053,49.23335788574039],[21.009461958181607,49.233869505635646],[21.007825272919423,49.23523206993539],[21.006929068136543,49.2357900230056],[21.005121846563103,49.236528111259275],[21.002776446564646,49.23660880147558],[21.00233286853083,49.23697654317198],[21.003590343066644,49.23731166129726],[21.0038712898245,49.237208320754725],[21.00401984943809,49.237248835240614],[21.0042062804854,49.23748487311824],[21.004366692422202,49.23758447438698],[21.004605629836124,49.23812157846075],[21.004242942626835,49.23872109978508],[21.00353054863699,49.238943022543694],[21.0031051898647,49.23910618609883],[21.003028809136506,49.23951404076605],[21.002454184654447,49.23971597968539],[21.00246259899265,49.23972642855618],[21.002573995012405,49.23986476040823],[21.002645120337622,49.24031075543013],[21.00289083524707,49.240714030372814],[21.002876186796165,49.240716791861594],[21.00286963065378,49.24071801769251],[21.002742951860974,49.24070594764161],[21.002490602843924,49.24065600163188],[21.00220042219358,49.240854738646824],[21.002130052370347,49.24090294101844],[21.002033711124042,49.24096892902989],[21.001933176061577,49.24118882041395],[21.001916990511504,49.241224302255304],[21.00180322053083,49.24136183313038],[21.001605187415905,49.241441416158395],[21.00134829668159,49.241366290788115],[21.0015406741676,49.241216749949864],[21.00170775792717,49.24108690725362],[21.00176486602907,49.240733520289766],[21.002210084296003,49.24047801073846],[21.002247748579382,49.24041694351205],[21.002407615016573,49.24015830120872],[21.002287577372766,49.24006109991444],[21.002144889266923,49.23994542091397],[21.00204531759827,49.23977830620626],[21.001863897380517,49.239703492348696],[21.0015167415201,49.240028924253686],[21.001405367594902,49.240133312251295],[21.001111360815706,49.240463094689524],[21.000970658709058,49.24045281409615],[21.000890669001286,49.240446952873555],[21.000703723571014,49.24016191678335],[21.000663852777258,49.24015106752112],[20.999099119364654,49.23972644453667],[20.999086048766927,49.23972295516541],[20.99897473616271,49.23969337851298],[20.99890318401366,49.2396742879188],[20.998321449340782,49.23951936546849],[20.997309712304894,49.239250048447836],[20.997186147511325,49.23921709729784],[20.99658959767181,49.239058258915456],[20.996553479614743,49.23904870164539],[20.996544722690455,49.23904634377308],[20.996152190986017,49.23894181949818],[20.994661403640773,49.23855620189694],[20.993237517913226,49.238150072771745],[20.99321087788139,49.238142446070306],[20.993211072857488,49.23812732737563],[20.993212751658316,49.23799404756521],[20.99345441328995,49.237477462945925],[20.9934677218184,49.237379046453405],[20.993458686044356,49.23690077876896],[20.993394574360586,49.23691208895888],[20.993106831499766,49.23708954701635],[20.993082287286068,49.23709765434333],[20.992438600523382,49.23731069215006],[20.992214814791634,49.23721844611309],[20.992005277687817,49.237103529647854],[20.99199986785879,49.237100561072516],[20.99154940039885,49.23700420148268],[20.991301995180834,49.237053426106456],[20.991272243099917,49.23686923697065],[20.991236465740112,49.23664703711435],[20.99099756336754,49.236646303272664],[20.990484148520256,49.23664483479317],[20.99048103590458,49.23664239175459],[20.990017559968653,49.236283429629474],[20.989978028902147,49.236278979853495],[20.989626055251346,49.23623950645821],[20.9893224223078,49.236163087290265],[20.989191848486097,49.23613025702245],[20.989075088083474,49.236087617028936],[20.98879475145881,49.235985312880565],[20.988578414581884,49.235953894848834],[20.98820448499211,49.23589956064061],[20.98801021148745,49.23585833312231],[20.987533329799128,49.235757037732576],[20.98709843344456,49.23570888843705],[20.986571918257326,49.235704450862514],[20.98593405969064,49.2358897353868],[20.985644252749875,49.235909193823304],[20.985568931150706,49.23591427903664],[20.985567703123703,49.235915949232265],[20.985425635312094,49.23611006457779],[20.985422926884596,49.23610952533743],[20.98522762466219,49.236072760855194],[20.985215073152204,49.23608045076755],[20.985213200727152,49.23608155957769],[20.984663955835842,49.23641632262336],[20.984447564745906,49.23640353154558],[20.983978628614853,49.23642087372955],[20.9837334575044,49.236354916369216],[20.983388007132756,49.23637379872232],[20.9834699828981,49.236276652097594],[20.983880038277537,49.236016091512745],[20.984004609363634,49.23586551730075],[20.983956497034338,49.235852860369505],[20.983949352514394,49.235851004721965],[20.98394523806188,49.23574337234363],[20.983926817672327,49.23526317111375],[20.983920205083592,49.23508955380447],[20.983716177439348,49.23471866443246],[20.983709784288152,49.23470702010646],[20.983687830386344,49.234665243495876],[20.98358302939054,49.23446507681088],[20.983576048005567,49.234414519700216],[20.983472177922422,49.23365943192328],[20.983456383302208,49.23363235294014],[20.98323486968607,49.23325296396496],[20.983225029906247,49.23323607438271],[20.983452494924116,49.23293241319263],[20.983596609743525,49.23293733616553],[20.983703805708448,49.2331420834418],[20.98371842741718,49.23317011414054],[20.983866201508484,49.233111235108446],[20.98439872851974,49.23289899881039],[20.984736037937818,49.23295007064949],[20.984820184040753,49.23308437438082],[20.985229687648882,49.233163928845265],[20.98523605724102,49.233165128719264],[20.9853436300007,49.23311951043864],[20.986292896672772,49.23271669342562],[20.986502785132657,49.232627622865714],[20.986516169782146,49.23262698265195],[20.987012134861942,49.23260448817788],[20.98741939213307,49.23258600753758],[20.98742411665602,49.232585352589915],[20.988669382875447,49.232417055468765],[20.988896635155022,49.232323779848336],[20.9894428422738,49.23209945683667],[20.989483773949893,49.23195819310822],[20.989664065815365,49.23133480222682],[20.990690623530245,49.23099886324126],[20.991048421297926,49.2309905396809],[20.99129989373718,49.23098475484758],[20.99132854058769,49.23098407520571],[20.991367239197356,49.230983185520294],[20.991466412148938,49.230806561449256],[20.991234183311533,49.23059519437384],[20.991605597968892,49.23048441137517],[20.991618681035966,49.23048051958806],[20.992126334838034,49.23054562781202],[20.992163365744005,49.230550355042176],[20.99221482198379,49.2303684722265],[20.991700514167967,49.23026461264881],[20.99169925255325,49.23005308907227],[20.991955344518153,49.22990970773171],[20.992055147167147,49.229656577806104],[20.991241293818817,49.2293732605435],[20.99121756505553,49.229368969924145],[20.991187467045844,49.22936347974839],[20.99048328519539,49.22923501102041],[20.990852720322867,49.22899740223412],[20.99050436951438,49.22879284207277],[20.990493679817728,49.22879600207936],[20.99022134226788,49.228876905243204],[20.99021022925201,49.22887302891005],[20.988882918640705,49.228408966561986],[20.9886928083108,49.228342487179134],[20.988693569625372,49.22834152186257],[20.988893674807436,49.22809817311497],[20.988871804620352,49.2280947533558],[20.988723032475153,49.22807185720234],[20.98871658292811,49.228064532762424],[20.988593719475258,49.227925987950115],[20.988757216152145,49.227643713095794],[20.989384585876483,49.227785784437096],[20.989747659219304,49.22731893142581],[20.990035225845933,49.22741237969071],[20.990172966603588,49.227216766869674],[20.9896538360693,49.226799520743086],[20.989565894557412,49.226239248970025],[20.990015943561893,49.226345149604015],[20.990151929380175,49.226244191715786],[20.990102228079557,49.226202134698944],[20.989921368420003,49.226049081104144],[20.990211946030815,49.22613722630631],[20.990410651690905,49.22621343915412],[20.990615278697344,49.22635592887841],[20.990885939000332,49.226346994825704],[20.990961929183296,49.22660580918656],[20.990967834230062,49.226625629907936],[20.9909700195025,49.22663299419845],[20.991035303306163,49.226855714479676],[20.99070553789515,49.22685199351219],[20.99069779524509,49.227055389016044],[20.990686650436132,49.2273480733958],[20.991260379158266,49.2274061741895],[20.991265484402376,49.22712589580598],[20.99162666207934,49.227146672362856],[20.991764878680275,49.22751565675314],[20.99244006162888,49.227889760541366],[20.992652131062865,49.227944170412236],[20.99268502506825,49.227952633029126],[20.992797864348066,49.2279816367453],[20.99291893071742,49.228012711086265],[20.992904584936895,49.22785711713401],[20.99288326180604,49.22762386764465],[20.993368411813496,49.227664734579],[20.99338897679402,49.2280013142394],[20.993203321159164,49.228095693375735],[20.993124933609543,49.22813561429912],[20.99319252467632,49.22819005120621],[20.993704987537363,49.2286033697446],[20.993705385162617,49.228603562858495],[20.993742924219678,49.22863396504981],[20.993749650830622,49.22863049460084],[20.9941456621264,49.22842615944325],[20.99426071795261,49.2282986711811],[20.99458213463685,49.22794270559076],[20.995231382525112,49.22786191693821],[20.99516959218438,49.22770647723121],[20.995141472794266,49.227635600737706],[20.995307385806097,49.227576403041766],[20.99532251118072,49.227570957335566],[20.995386955082605,49.22754795339423],[20.995420438165095,49.22756129621609],[20.995632847818197,49.227645421871394],[20.995893358691383,49.22755178438729],[20.9958947237382,49.22745126504611],[20.995897743342642,49.22723925212195],[20.99616881457596,49.22726092957346],[20.996398006353314,49.2272532330814],[20.996509506706765,49.22724941817008],[20.996528799696794,49.22724879061312],[20.99691634603976,49.22723575394364],[20.997223827035402,49.22722531188012],[20.99724134688704,49.22737911834931],[20.99690602213134,49.22755952509721],[20.99671081173204,49.227536286408906],[20.996715045552925,49.227561813884385],[20.996671920372755,49.227564900842694],[20.996632066037446,49.22767081987793],[20.99659843904797,49.227760017437134],[20.996888012333073,49.22805032073814],[20.99728259714565,49.22811430947683],[20.997324322052286,49.22794975176959],[20.997663060077368,49.227980036917444],[20.99763190981673,49.228132157160914],[20.99800569876427,49.22808697481282],[20.998713232108635,49.228263314159584],[20.999276458745182,49.228288169542374],[20.999715996094388,49.228375590757295],[20.99973711975926,49.228379794262764],[20.999806271260507,49.22838152048245],[21.000563770511242,49.22840058246435],[21.00073910216045,49.22844296983362],[21.001410031423184,49.228605578761055],[21.0014323002769,49.22861098986043],[21.00144580008771,49.2286142230491],[21.001465621170688,49.22862288506934],[21.00158154285143,49.22850901315172],[21.00185040655144,49.22834190158156],[21.002096353994197,49.22823363878732],[21.002160036342495,49.22811436402773],[21.002285179393187,49.22783468790532],[21.00249610417739,49.22757294625252],[21.002523645620492,49.227523701486646],[21.002601785684078,49.22738428312545],[21.002760737607126,49.227225273856895],[21.002847802799955,49.22714898868439],[21.00300343495253,49.22694701605923],[21.003070760894804,49.226875396101185],[21.003096594255528,49.22683590856832],[21.003262179099753,49.226582764326324],[21.003440960788456,49.22645024222633],[21.003520502427534,49.22634823173029],[21.003723681070625,49.22608515413696],[21.00397072712326,49.22576418262238],[21.004267529083148,49.225430614808516],[21.004303020553223,49.225390632958565],[21.004390738042794,49.225039146060524],[21.00445413494091,49.22485683979033],[21.004507701113955,49.224702481125604],[21.004509284035617,49.22467633417803],[21.005937712543442,49.224991916634224],[21.006680270990454,49.225186370321985],[21.006455908503295,49.22547873936585],[21.00624498659056,49.22575345179336],[21.005993156461262,49.226081473469286],[21.005705462129313,49.22645612694823],[21.005514529604337,49.226704753466265],[21.005333666065795,49.22694029477824],[21.00516928868917,49.227154318073175],[21.005030858773885,49.22733452888136],[21.004994838862025,49.22738142596162],[21.00497087125721,49.22741269217116],[21.004875983280723,49.22760234063155],[21.004712818981062,49.22792831035871],[21.004663601016947,49.227998633295286],[21.004973310189662,49.228268867097036],[21.005052425912837,49.22832556452514],[21.00502937571844,49.2288600381673],[21.005029341525066,49.228862287796694],[21.005029369006454,49.22886372917519],[21.00503147926843,49.22917656223639],[21.004412427891573,49.229344462429964],[21.0044788025905,49.22953749861873],[21.005088192348957,49.2294602120229],[21.005241973236604,49.22930049014075],[21.005586570512868,49.22927035347003],[21.005672170278316,49.22924389488625],[21.006007540845157,49.229140080723965],[21.006442967837085,49.228892340400535],[21.00692601299385,49.22907820944267],[21.007176419535412,49.22917453979004],[21.007615793780307,49.229343672220985],[21.008300249695985,49.22943204813229],[21.008384018234647,49.22928173685947],[21.008755330302243,49.22929243766944],[21.008853322164995,49.229482093124744],[21.009817401719552,49.22944410757435],[21.009982332019053,49.22920281745948],[21.011288803802056,49.22917430044165],[21.011756059273086,49.228452405318556],[21.012112493280664,49.22894894899021]]]}},{"type":"Feature","properties":{"NATIONALSITECODE":"662","SITETITLE_SK":"NPR Regetovské rašelinisko","AREA_HA":2.6171,"category_code":"NPR"},"geometry":{"type":"Polygon","coordinates":[[[21.277535035585597,49.424429352421804],[21.277273377163137,49.424499828151774],[21.27717217299613,49.42453951774048],[21.276807671438835,49.42468239453203],[21.27613574090975,49.42514331436754],[21.27522503809476,49.425253987025755],[21.275200921178513,49.42520897370195],[21.27518496816034,49.425179148610695],[21.275518724545435,49.425072878106704],[21.276089485924054,49.424515472326675],[21.276393084956595,49.424231784687535],[21.276485641282548,49.424071225941425],[21.27647531505134,49.42392546364316],[21.27633831182831,49.42382446939478],[21.276051981913586,49.42372588416611],[21.275772508579333,49.423536779725225],[21.276360803829082,49.423582044127606],[21.276626397944646,49.42357838410585],[21.27710984429385,49.42348573159087],[21.278016050180703,49.42337373922292],[21.279187585614487,49.42304628241546],[21.279343325931205,49.423235055747135],[21.278415758959436,49.424159795046634],[21.278415186242064,49.42416202786419],[21.278352020502936,49.42444102490136],[21.278257026546875,49.42446713240702],[21.2781134874606,49.42437260308473],[21.277800356111204,49.42435781687937],[21.277535035585597,49.424429352421804]]]}},{"type":"Feature","properties":{"NATIONALSITECODE":"1113","SITETITLE_SK":"NPR Pramenisko Tople","AREA_HA":29.2286,"category_code":"NPR"},"geometry":{"type":"Polygon","coordinates":[[[21.012112493280664,49.22894894899021],[21.011756059273086,49.228452405318556],[21.011288803802056,49.22917430044165],[21.009982332019053,49.22920281745948],[21.009817401719552,49.22944410757435],[21.008853322164995,49.229482093124744],[21.008755330302243,49.22929243766944],[21.008384018234647,49.22928173685947],[21.008300249695985,49.22943204813229],[21.007615793780307,49.229343672220985],[21.007176419535412,49.22917453979004],[21.00692601299385,49.22907820944267],[21.006442967837085,49.228892340400535],[21.006007540845157,49.229140080723965],[21.005672170278316,49.22924389488625],[21.005586570512868,49.22927035347003],[21.005241973236604,49.22930049014075],[21.005088192348957,49.2294602120229],[21.0044788025905,49.22953749861873],[21.004412427891573,49.229344462429964],[21.00503147926843,49.22917656223639],[21.005029369006454,49.22886372917519],[21.005029341525066,49.228862287796694],[21.00502937571844,49.2288600381673],[21.005052425912837,49.22832556452514],[21.004973310189662,49.228268867097036],[21.004663601016947,49.227998633295286],[21.004712818981062,49.22792831035871],[21.004875983280723,49.22760234063155],[21.00497087125721,49.22741269217116],[21.004994838862025,49.22738142596162],[21.005030858773885,49.22733452888136],[21.00516928868917,49.227154318073175],[21.005333666065795,49.22694029477824],[21.005514529604337,49.226704753466265],[21.005705462129313,49.22645612694823],[21.005993156461262,49.226081473469286],[21.00624498659056,49.22575345179336],[21.006455908503295,49.22547873936585],[21.006680270990454,49.225186370321985],[21.005937712543442,49.224991916634224],[21.004509284035617,49.22467633417803],[21.004518884534523,49.22452530781692],[21.00451356256829,49.22445635057327],[21.004469020439952,49.224175438851155],[21.004524178209326,49.223847103981704],[21.004615557240644,49.22365653057352],[21.0047299132238,49.22340260778998],[21.004988731976905,49.22310542767001],[21.005407318985,49.22277692412586],[21.00541430635848,49.22266551544554],[21.005740334680766,49.22237728586327],[21.006650207616662,49.2225707347527],[21.006823916002315,49.22265402417875],[21.007622204724065,49.223144694577016],[21.00741808076442,49.2232799946692],[21.006882631425583,49.22318181070459],[21.00616356986433,49.224355592666164],[21.008181112104417,49.22470212715771],[21.013945217553122,49.22503400552182],[21.013944840574286,49.22506604372603],[21.01369856968888,49.225168287649666],[21.0125803990018,49.22554680245506],[21.012186985679637,49.22558661767592],[21.012495203254964,49.226503104577326],[21.012578450933564,49.228868468708995],[21.012112493280664,49.22894894899021]]]}},{"type":"Feature","properties":{"NATIONALSITECODE":"600","SITETITLE_SK":"NPR Stebnícka Magura","AREA_HA":179.142,"category_code":"NPR"},"geometry":{"type":"Polygon","coordinates":[[[21.222481946786353,49.37671152805745],[21.22121286451488,49.37570890536473],[21.22120482460771,49.375606405130284],[21.219931837666575,49.376202877517684],[21.21982524632798,49.375000734699],[21.219824216732675,49.37422282470632],[21.21971525088304,49.373765631961255],[21.219907256871377,49.37362266526293],[21.220074166755225,49.373510339562344],[21.220410322751825,49.373104386461236],[21.22056356557224,49.372925480983135],[21.220726453041177,49.37274471195749],[21.22095549043541,49.37252403370482],[21.22118303188163,49.37229349775978],[21.221303946391664,49.371924572386824],[21.221407839790402,49.37160237897464],[21.221536516890072,49.3710112740652],[21.221636353885696,49.37076051465966],[21.221679326045134,49.370537528763855],[21.22194201280897,49.370110138088336],[21.222306439877073,49.36984861844654],[21.22267284460633,49.369557724883286],[21.222776877136127,49.3695199707166],[21.22311389162378,49.36939757303755],[21.223277658210158,49.36933807324009],[21.22367556396526,49.369227538580354],[21.224138620637607,49.36914817020832],[21.22467592244535,49.36905605145484],[21.225426119133886,49.36891880984803],[21.226365712040128,49.36875453144372],[21.227248982395523,49.36882281395659],[21.22747333841621,49.36875634938742],[21.227877702627392,49.368565529383204],[21.228245265474207,49.3684033711104],[21.22865480158959,49.36816554165038],[21.229044573449283,49.36796094795092],[21.229446412657968,49.367736111125964],[21.229837143848563,49.36747024687965],[21.230083948395954,49.36722777522849],[21.230119558666324,49.3671409279199],[21.230553230543592,49.366630739873365],[21.230513035796562,49.36636775346371],[21.230832458894895,49.36628619967442],[21.231210825879636,49.36588547512666],[21.231622402560554,49.36566093041938],[21.23218060731586,49.36497876797125],[21.232932848266387,49.36430615788148],[21.233714389281587,49.36396361260133],[21.234145934842168,49.36369097639654],[21.235172330890034,49.362401816533016],[21.235691974358936,49.361909819817086],[21.235789164209322,49.36178858483212],[21.236613672380834,49.36118288706857],[21.237344408927182,49.36071778730638],[21.23768761876754,49.36048284653728],[21.23836316117494,49.36002036985661],[21.23906970860693,49.35970933765616],[21.239443659022097,49.35970819198053],[21.23999455718844,49.35947087581686],[21.240221823542505,49.35940141724311],[21.24028043671298,49.35938349998302],[21.240431338416244,49.35933735532492],[21.240767942141314,49.35923442970915],[21.240974363536242,49.35923841029385],[21.241153265111954,49.35924181792693],[21.241485336009756,49.35924811459041],[21.241965091060518,49.35924155921325],[21.24238275054425,49.359326442349754],[21.24295357344189,49.35917802315476],[21.243245157786415,49.35928190750012],[21.24344168430824,49.35930088274432],[21.24398459860223,49.35941668588226],[21.244504317958267,49.35942934486629],[21.244599705141397,49.35944243391348],[21.24478569923065,49.359468015500404],[21.24502522789923,49.359500364780054],[21.245093454309554,49.359684722815345],[21.24527411401532,49.3600231069635],[21.245404129360832,49.3601837014014],[21.245422111749797,49.360486506516736],[21.245809251891536,49.360493664636614],[21.245831030213118,49.36019558588059],[21.245883058843535,49.360009955050536],[21.245392416551855,49.35998568016725],[21.245207436700536,49.35952492980325],[21.24523418783038,49.3595285382806],[21.245441403117937,49.35952722460984],[21.245772306583397,49.358707716956665],[21.246101972856856,49.357891861012504],[21.2472873314985,49.35665895212808],[21.247821116954402,49.35611702254257],[21.24889264428122,49.35521410876052],[21.24907791535276,49.354918594539704],[21.24909082464152,49.35464400690789],[21.249327994442613,49.35473595300007],[21.253430164430142,49.35632576584083],[21.254552902397744,49.35813583040106],[21.25337028884903,49.3610703504865],[21.25264260232078,49.36123680524629],[21.252185215945467,49.36164895280076],[21.251412268428975,49.362253177862684],[21.250935941827933,49.362598495345196],[21.250880663984926,49.3628990613244],[21.250549926613402,49.36336088515619],[21.24994705968803,49.36335021548897],[21.24979801100292,49.36353405444499],[21.24873189566223,49.36404550954773],[21.247976035239287,49.3635751543344],[21.246423306008392,49.36395335495861],[21.245534892768674,49.36442304916644],[21.24400946963301,49.36511357995823],[21.242101750430155,49.3661680955477],[21.240193193684078,49.36725424022873],[21.239879165392548,49.36746811982148],[21.238844892920525,49.36700394063553],[21.237950252956544,49.367029007564675],[21.237115432696736,49.366848786487694],[21.23734953721326,49.367388644261496],[21.236916673386244,49.368028495345115],[21.235034460166265,49.369675325038095],[21.23463440178148,49.36996180243754],[21.233731644511543,49.37049749097772],[21.233006433803716,49.37086606981105],[21.232620142507493,49.371026048053636],[21.23195166760282,49.37130896114804],[21.23080182001395,49.37211688898341],[21.22948435549927,49.37308887958658],[21.229275013849712,49.37324330009803],[21.228946101902974,49.373136346673896],[21.22814859426358,49.373508617588634],[21.22811728181203,49.373763376704204],[21.227540755729798,49.37383108445225],[21.22759903267294,49.373997955105665],[21.227714028317823,49.374225165447285],[21.227451937185542,49.374308023785666],[21.227107903322857,49.37448926587084],[21.226846232522938,49.374514618831284],[21.22673516629597,49.37459248551461],[21.22735681877192,49.37470402962599],[21.227520535663963,49.3745726934054],[21.22788910861954,49.374555933885944],[21.22804952697485,49.37467697620533],[21.228319303722536,49.374879687071854],[21.228421607227382,49.37531758201435],[21.22832974862842,49.37584636436451],[21.227934450280404,49.37642712254],[21.227894243154584,49.37648196409869],[21.226524041838992,49.37581176630576],[21.226397316721396,49.37574729424786],[21.226068531936093,49.37586023389971],[21.225557559487473,49.37583858643812],[21.225257062340447,49.37601801149762],[21.224524483488658,49.3759935968908],[21.222481946786353,49.37671152805745]]]}},{"type":"Feature","properties":{"NATIONALSITECODE":"661","SITETITLE_SK":"PP Rebrá","AREA_HA":8.3659,"category_code":"PP"},"geometry":{"type":"MultiPolygon","coordinates":[[[[20.926453683883878,49.22899712717615],[20.926035670573707,49.22927712720114],[20.925479750862575,49.22946374399596],[20.924149363092873,49.2299597663227],[20.923576730226483,49.23024773548137],[20.923132762149585,49.230444116196374],[20.922558050333446,49.230883810177154],[20.92134385693472,49.23138395758419],[20.92046726413501,49.23162546199157],[20.9194810289732,49.231333794747314],[20.91948688028998,49.23094161731676],[20.92065922770416,49.230075626872136],[20.92125030854651,49.229642971855526],[20.921931132267176,49.22929695790233],[20.922508789171392,49.229043288016655],[20.922889348145155,49.22897065888988],[20.92377362038367,49.22862279335724],[20.92425657759997,49.22876912636689],[20.925080641712643,49.22870158851592],[20.926062795038696,49.228482305505075],[20.926380170319764,49.228544767611126],[20.92663295846159,49.22841977988464],[20.926453683883878,49.22899712717615]]],[[[20.926644049990113,49.228146714629055],[20.92552789638008,49.22819622112342],[20.925037221896687,49.228053686963726],[20.925218236222033,49.227803586234664],[20.925627040980316,49.22766112500525],[20.926055648140252,49.22768093657268],[20.9262862525898,49.22763245848477],[20.927492772382376,49.227394999232665],[20.927896971693173,49.227313330120246],[20.927961515581373,49.22740425962209],[20.927821807068238,49.22764313854893],[20.927422772629736,49.22770787336196],[20.926644049990113,49.228146714629055]]]]}},{"type":"Feature","properties":{"NATIONALSITECODE":"626","SITETITLE_SK":"PP Okrúhly kopec","AREA_HA":5.4876,"category_code":"PP"},"geometry":{"type":"Polygon","coordinates":[[[20.902389831874075,49.24098406020475],[20.902623829550752,49.241077636658815],[20.902716378654915,49.241275853847114],[20.902597221770037,49.241501351721865],[20.902878441712538,49.242043451913396],[20.903532803720196,49.24218995350333],[20.903721084169437,49.242287934138936],[20.90324317945008,49.24243412543844],[20.902517855425963,49.24265960699046],[20.902000116189928,49.24285775625193],[20.901375905359636,49.24309662271834],[20.90066687750229,49.24320874562535],[20.900140914526677,49.24315036837356],[20.900023204187193,49.24307141109942],[20.899689546472914,49.242847528150406],[20.89922580853819,49.242572721374096],[20.898813052675738,49.24206355259263],[20.89903441632991,49.24184311580646],[20.899187303050944,49.2416909641888],[20.89988270514672,49.24132629186269],[20.900472963952428,49.241213333126304],[20.90068316785634,49.241159625138124],[20.900942767580077,49.24109326143715],[20.90117514000824,49.24103390520128],[20.90140842679204,49.24101374488335],[20.90168739514816,49.24098971718149],[20.90198090472418,49.24096437675654],[20.902283909518978,49.24086876653146],[20.902389831874075,49.24098406020475]]]}},{"type":"Feature","properties":{"NATIONALSITECODE":"592","SITETITLE_SK":"PP Kyjovské bradielko","AREA_HA":0.7012,"category_code":"PP"},"geometry":{"type":"Polygon","coordinates":[[[20.937953840226815,49.224819478290236],[20.93772538128199,49.22525492721367],[20.93793294982255,49.225447941649314],[20.93796393539563,49.22560833423272],[20.9377485222947,49.225826154843126],[20.937736056622978,49.22601679222191],[20.93733648932764,49.22590642570853],[20.936999119996933,49.22567136165353],[20.9367833589698,49.2256564304463],[20.93668558786846,49.22543384946256],[20.9369299612574,49.22516000381195],[20.93719379942098,49.22516474196671],[20.937473284395004,49.2250423321659],[20.937697786412127,49.2248189625906],[20.937969283425392,49.22469493510632],[20.937953840226815,49.224819478290236]]]}},{"type":"Feature","properties":{"NATIONALSITECODE":"599","SITETITLE_SK":"PP Lysá hora","AREA_HA":1.1393,"category_code":"PP"},"geometry":{"type":"MultiPolygon","coordinates":[[[[20.945539359174443,49.220559658295215],[20.94565069758266,49.220603965005964],[20.945357993449278,49.220791138102406],[20.944794535995584,49.22098857519924],[20.944500632469552,49.22070167758233],[20.94453778486738,49.220351780517625],[20.94538772885066,49.22016792146424],[20.945539359174443,49.220559658295215]]],[[[20.945552181195502,49.2212438920691],[20.945345627933904,49.221504155679405],[20.94573652943707,49.22153983955666],[20.94595965894902,49.22160847982335],[20.94542030201053,49.22209437945472],[20.945144682764287,49.22202903497363],[20.944972053786632,49.221583659778425],[20.945000038736172,49.22121545118258],[20.945425904100038,49.22114578860499],[20.945737595504816,49.221123378279735],[20.945552181195502,49.2212438920691]]],[[[20.946370426714793,49.2203249256572],[20.945847396040204,49.220456635996435],[20.945652325470984,49.220098658741506],[20.94626385117788,49.220009775940525],[20.946370426714793,49.2203249256572]]],[[[20.94592939293897,49.220869015959615],[20.945730365265085,49.22101977902131],[20.945585985396086,49.22083067987707],[20.945867225819796,49.22065663023788],[20.94592939293897,49.220869015959615]]]]}},{"type":"Feature","properties":{"NATIONALSITECODE":"507","SITETITLE_SK":"PP Bradlové pásmo","AREA_HA":20.1311,"category_code":"PP"},"geometry":{"type":"MultiPolygon","coordinates":[[[[20.969526907698246,49.1967309408543],[20.96851098823935,49.1968376260859],[20.967327979021515,49.19653434614437],[20.966447586458198,49.19591424388692],[20.96644027889984,49.195516864292635],[20.966560306978735,49.194841442170365],[20.96659656870992,49.194038912291845],[20.96718613928838,49.1937933568907],[20.967848371273064,49.19351751965565],[20.968351541110604,49.19346798514991],[20.970501637377698,49.194045773144055],[20.97127866609014,49.194306077706756],[20.971798006707463,49.19462322768484],[20.971870304518177,49.19466739165273],[20.972193967134533,49.19498887874328],[20.97235962082609,49.19515352954071],[20.972424582970593,49.19521806838968],[20.972178059136308,49.19590660154242],[20.97211387227793,49.196625016450284],[20.970811124977914,49.19675645866508],[20.970199426693867,49.19653240820001],[20.969526907698246,49.1967309408543]]],[[[20.947822110554775,49.2046172963177],[20.947553387889926,49.20499830332763],[20.947015930330238,49.205760315336555],[20.94545576217745,49.20628556105085],[20.945162865895103,49.20622441044962],[20.944773144740616,49.206143112061646],[20.94445409971311,49.205788117554825],[20.94467164488078,49.20568848301964],[20.94505758368187,49.205511707286995],[20.944774786907082,49.20523868008017],[20.94501299183278,49.204553067275],[20.94553500997693,49.20433120729124],[20.94622032854259,49.20418122056148],[20.94714838964748,49.2041259128021],[20.947822110554775,49.2046172963177]]],[[[20.932206445103,49.209096798698965],[20.93294468584751,49.20928223249266],[20.933934894755637,49.20937126470472],[20.933791954660947,49.2096050000217],[20.933766515601935,49.2096087433176],[20.933541752660748,49.20964158206563],[20.93288754799963,49.209805230940084],[20.932328087721217,49.209913244639935],[20.93177515678636,49.209871835195834],[20.931336620770388,49.2098261378863],[20.930892747568386,49.209637014716364],[20.930170109247687,49.209592003601486],[20.930135234184085,49.209589848908564],[20.93031892434463,49.209406637129085],[20.93051647063465,49.2092095720355],[20.93051959343209,49.20920652504702],[20.93057765384174,49.209175600343706],[20.9310146590228,49.20894223044123],[20.931045770632014,49.20892562197592],[20.931644371710238,49.208854934987826],[20.932206445103,49.209096798698965]]],[[[20.94043470763907,49.20374011314514],[20.940556667753185,49.204042009673465],[20.940544926205096,49.20406052599661],[20.940455072295308,49.204202129783035],[20.940280107968547,49.20440113251198],[20.94015414118468,49.204567193397295],[20.94005123898567,49.20476184306015],[20.93974713173286,49.20480465532832],[20.938826225390486,49.2048701372101],[20.93880425261606,49.20487174611668],[20.938692183984095,49.20482497591127],[20.938278671960262,49.20465210724878],[20.938226898370353,49.204630484482536],[20.93843687819798,49.204451378440844],[20.938715829023586,49.20432724030176],[20.938777523126074,49.20425465668596],[20.938931150167097,49.204073942556846],[20.9389575891355,49.20403070621816],[20.939038801221656,49.2038978190477],[20.939268082873877,49.20371071131243],[20.939573366198143,49.20366505854495],[20.940007952972145,49.20362641252018],[20.940349490251574,49.203566839328346],[20.94043470763907,49.20374011314514]]],[[[20.936664783850986,49.21053027525423],[20.936591035330377,49.21079513072315],[20.936543290708535,49.21079588034276],[20.9362323198676,49.21080091143944],[20.935954155244268,49.21066487023094],[20.935965629239274,49.21053128081798],[20.935970008686496,49.21048019695966],[20.93624023865208,49.21045472126433],[20.936664783850986,49.21053027525423]]],[[[20.95835452192242,49.196055513246],[20.958206958922705,49.19619629610713],[20.957996677741793,49.196309519751516],[20.957617759198993,49.196331078862634],[20.957587123071438,49.19633285406356],[20.957562102131714,49.19618004692665],[20.957768979194444,49.196103805195946],[20.957951393491292,49.19603656574434],[20.95804838693982,49.19602942769794],[20.958409691542503,49.19600287166987],[20.95835452192242,49.196055513246]]],[[[20.93509133459313,49.209314122180906],[20.935240067962585,49.20956478668379],[20.935077586505873,49.2095512660681],[20.934780754903944,49.209526512725866],[20.93447753644597,49.20951144948107],[20.93447897734905,49.20947521342484],[20.934481589528207,49.20940444298459],[20.93487313869812,49.20928721908035],[20.93509133459313,49.209314122180906]]],[[[20.94188230861574,49.203521627581395],[20.94169750209786,49.2036669139615],[20.94143999903538,49.20365104855633],[20.941316655983293,49.20353349827658],[20.941813809639637,49.203357734919436],[20.94188230861574,49.203521627581395]]],[[[20.94290544777794,49.20341846908337],[20.942812830335555,49.20358519219498],[20.94275679875619,49.203598993456126],[20.942489123366084,49.203664723409815],[20.94236456159979,49.20358945008266],[20.94255980001891,49.20338400659089],[20.94290544777794,49.20341846908337]]],[[[20.96435274491142,49.19505037423287],[20.96420955228952,49.19516501888617],[20.964031980615083,49.19508225186364],[20.964058691845324,49.19506900083064],[20.96417755928112,49.19500973213338],[20.964312825511968,49.194972974374984],[20.96438411128685,49.19495354591006],[20.96435274491142,49.19505037423287]]]]}},{"type":"Feature","properties":{"NATIONALSITECODE":"677","SITETITLE_SK":"PR Slatina pri Šarišskom Jastrabí","AREA_HA":2.1401,"category_code":"PR"},"geometry":{"type":"Polygon","coordinates":[[[20.907594337390044,49.22570183062194],[20.907430262735247,49.225816971364914],[20.90730055232997,49.2259303843413],[20.906771670836378,49.22591857119391],[20.90586742862062,49.226480106471385],[20.904143425488883,49.226314875828905],[20.904055657116864,49.22618578623047],[20.904142055133608,49.2261164798183],[20.904498761269753,49.22583071336513],[20.90473390412766,49.225641973206436],[20.90509403120266,49.22535280861912],[20.906473894992878,49.22520223942722],[20.907594337390044,49.22570183062194]]]}},{"type":"Feature","properties":{"NATIONALSITECODE":"1132","SITETITLE_SK":"PR Vlčia","AREA_HA":21.2414,"category_code":"PR"},"geometry":{"type":"Polygon","coordinates":[[[21.14846585403872,49.19268340381216],[21.148581448749596,49.19277779045772],[21.149592138785682,49.19339902265679],[21.149598863803863,49.19345900955184],[21.14961724439498,49.19362036903208],[21.14978753205121,49.19512623014003],[21.149829508660655,49.19549772519022],[21.149957175136315,49.19662603794027],[21.149963026057687,49.19665863035544],[21.149969058839797,49.19669248881325],[21.15013733434427,49.19763996483608],[21.150187158962343,49.19789143662255],[21.14641802021697,49.19828404798455],[21.14637322034786,49.19812527569003],[21.146362643589615,49.19808785282931],[21.146219443530786,49.197794994250124],[21.146225548286818,49.19768193837022],[21.146179063589905,49.19734036690375],[21.14617060809716,49.19727780457692],[21.146217590651688,49.197169278752156],[21.14615557026537,49.19700933296503],[21.146126709784273,49.19693469417622],[21.14612612347315,49.19693332534449],[21.14597201886518,49.19645233499554],[21.14595492237198,49.19639895244197],[21.145955863440886,49.19638052748118],[21.145956221104804,49.19637378706357],[21.145974886541893,49.195878350940006],[21.145999622263737,49.195221695513595],[21.14599983627274,49.19521504058464],[21.14588128320038,49.19506366383528],[21.145830547617475,49.19499886749984],[21.145851675656374,49.19491131170429],[21.145749395254875,49.194774041500274],[21.14536108371643,49.194448512421],[21.144974088449604,49.19414813973305],[21.144698161523962,49.19395515666963],[21.144349933286332,49.19375728057491],[21.144074040071896,49.193640546288485],[21.143915782594767,49.1935735258088],[21.143618013433887,49.19346852309011],[21.143536209027,49.19343965429444],[21.14326868173787,49.193272679180026],[21.1427447412359,49.19284365344886],[21.14253638359293,49.19260616603564],[21.142480802539573,49.192484050362424],[21.14246589269376,49.19245144137927],[21.142465970929567,49.19228220059963],[21.142465924335216,49.19226788547003],[21.14252862785286,49.19227067550798],[21.14263843249499,49.19227549279578],[21.14441200835627,49.192353352406364],[21.144452248583672,49.19236650532145],[21.144465936072322,49.19237089827248],[21.144576438487917,49.19236061190112],[21.145134614590823,49.192308727048534],[21.146413108496045,49.192247063025086],[21.146462985575877,49.19223747335796],[21.146469373567204,49.19223839502025],[21.146576958886413,49.19225286105635],[21.146944986010418,49.192302637502046],[21.1474362071446,49.19219542679431],[21.147644316068607,49.19212970049522],[21.14769578352947,49.19211340875525],[21.14846585403872,49.19268340381216]]]}},{"type":"Feature","properties":{"NATIONALSITECODE":"640","SITETITLE_SK":"PR Pod Beskydom","AREA_HA":8.2094,"category_code":"PR"},"geometry":{"type":"Polygon","coordinates":[[[21.412321258040738,49.40953704971004],[21.411631497657623,49.409244442002056],[21.411692414215796,49.409396334801926],[21.41143894807048,49.40938760114417],[21.410863609541003,49.40855175776778],[21.410480232182902,49.408427997696265],[21.409454399969476,49.40761321708058],[21.409477415676434,49.407418049770804],[21.4090507588407,49.407086564783434],[21.40821080585153,49.40674833653186],[21.407584480062273,49.406235254189646],[21.407480657328296,49.406150236563604],[21.40755707410738,49.405892367318835],[21.407363923098806,49.40557317566168],[21.40899721957959,49.40605154254973],[21.41258248007676,49.40710334519877],[21.41297664410307,49.407172153361266],[21.41412711229932,49.407249928994936],[21.414019532257377,49.40762920271643],[21.41391893215468,49.40763806396596],[21.41398691388977,49.40786018037494],[21.413590416723714,49.40795852593114],[21.413346282072812,49.40843264214432],[21.41356313414044,49.4086257935887],[21.413230144208125,49.408765496573686],[21.41309225019499,49.408728721824275],[21.412353188623676,49.409144864286866],[21.412321258040738,49.40953704971004]]]}},{"type":"Feature","properties":{"NATIONALSITECODE":"655","SITETITLE_SK":"PR Radomka","AREA_HA":15.4056,"category_code":"PR"},"geometry":{"type":"MultiPolygon","coordinates":[[[[21.53955099144501,49.13258430584564],[21.53986071723418,49.13236407361844],[21.540405993978208,49.13242994215094],[21.54143615711243,49.13239265370949],[21.541644132293577,49.132404546314056],[21.5418668639036,49.13241730447364],[21.541885584598585,49.13241837213622],[21.542277798251234,49.13235427363606],[21.54252448549038,49.1322985834527],[21.542592373917383,49.13220014331277],[21.542567252906693,49.13208729184955],[21.542805359008923,49.132043239680165],[21.542905717996952,49.13204174735308],[21.54307047305659,49.13203918923267],[21.543170096124207,49.13214117920746],[21.543125444404144,49.13226601514593],[21.543298794139965,49.132362701937886],[21.54351266203228,49.13239563787145],[21.543764596155608,49.13235197328273],[21.543817503399154,49.13228542149955],[21.54384900240957,49.132256787859745],[21.54398750761066,49.13219633723804],[21.544077330614975,49.13217978667001],[21.544142640543686,49.13217523599843],[21.54421774943442,49.132165561113844],[21.544303336452142,49.132165541581585],[21.544383746959294,49.132160786055444],[21.544451950632144,49.13216441696013],[21.544532454556137,49.132164524112135],[21.54462093539633,49.132172686092616],[21.544693599309173,49.13216474210497],[21.544762895105617,49.13213699262224],[21.544838652015294,49.13214047599307],[21.54491198934424,49.132147401287895],[21.544985363726948,49.13215585762604],[21.545070950726355,49.13215583753113],[21.545143839065048,49.13215284973557],[21.545180504170407,49.13215217206633],[21.54521675856136,49.132151482821236],[21.545289820832245,49.13215002987873],[21.54532497411021,49.13214939959989],[21.545365210474703,49.13214864241854],[21.54543315847646,49.132145695351674],[21.545513213253827,49.13213588888418],[21.545593117980996,49.13211788789173],[21.54567022220178,49.13209656790678],[21.545805163591016,49.13206121562696],[21.546361006081113,49.13219629570914],[21.54668449252309,49.13248269850604],[21.547356520977214,49.132437168153494],[21.5475112197034,49.13245628140306],[21.547400047600526,49.132310499198844],[21.547497126510635,49.132327721163385],[21.54807887839396,49.13249250266591],[21.549555741971684,49.132654913541984],[21.54974903001406,49.13266070847466],[21.549407620949715,49.13224312710718],[21.54888040816981,49.13173679648912],[21.547377099226356,49.13054805179135],[21.5471244433421,49.130556782497074],[21.546972901208058,49.13049365605941],[21.546429604741263,49.13038512222682],[21.54652877040673,49.13009756462796],[21.546423733868803,49.13005527696423],[21.546267345829193,49.130028554243964],[21.54616689345811,49.13035675668804],[21.546099487392713,49.13055916544412],[21.546069909748656,49.13064446545083],[21.546025614957824,49.13063808837928],[21.54612274900777,49.13035857412733],[21.545824094231442,49.13044574956844],[21.545784243786994,49.13045740806689],[21.545589105394324,49.130415013083834],[21.54517398884169,49.13027174087567],[21.544849002554166,49.13015962620173],[21.544930960258707,49.12990254605711],[21.54469374366603,49.12988704542096],[21.544629693829396,49.13013661952149],[21.544402564425067,49.13013463282648],[21.544375586221484,49.130354199940385],[21.544008980251437,49.130314353002696],[21.544011941980386,49.13019149252348],[21.54351824080081,49.13026839775142],[21.54350987906314,49.130347994739125],[21.543043393604485,49.13037364306935],[21.542958034086286,49.130393288633115],[21.542619225833146,49.13047149437571],[21.542347776346485,49.130528466746085],[21.542151844735262,49.13056947631934],[21.54206232040198,49.130591973963405],[21.541553332321907,49.13072001192009],[21.541399432155277,49.130301209785294],[21.541031151793877,49.13049855415045],[21.540625487321158,49.130715904020484],[21.540464349716583,49.13078057266038],[21.54037448483001,49.13088784229161],[21.53885056982907,49.13175668087252],[21.538545865913232,49.132097026289],[21.538183925620075,49.13223909921886],[21.538206245931832,49.132271050103334],[21.537875603490374,49.132607331908474],[21.5377943442323,49.13267524121511],[21.537688059306245,49.132790145869954],[21.53757778414937,49.132819434877405],[21.537132230058653,49.13334138822338],[21.537099461915773,49.133383034799984],[21.53660023528661,49.133637692137356],[21.536401320889883,49.13365907761917],[21.536924559397907,49.13369094877399],[21.537158301512093,49.13362788394855],[21.53730499479614,49.13353059077344],[21.537902461768084,49.13344277840037],[21.538039062929833,49.133327828976164],[21.538535671321117,49.13310459295611],[21.53902327211162,49.13293294257852],[21.53955099144501,49.13258430584564]]]]}},{"type":"Feature","properties":{"NATIONALSITECODE":"676","SITETITLE_SK":"PR Slatina pod Lieskovcom","AREA_HA":0.6969,"category_code":"PR"},"geometry":{"type":"Polygon","coordinates":[[[21.336358551693365,49.29549483571114],[21.335888874196147,49.295760741551064],[21.3349937902055,49.29606227926901],[21.334609989183726,49.295874583797705],[21.33461070094464,49.295874245019256],[21.336600748053876,49.29478299076934],[21.336358551693365,49.29549483571114]]]}},{"type":"Feature","properties":{"NATIONALSITECODE":"598","SITETITLE_SK":"PR Livovská jelšina","AREA_HA":13.1771,"category_code":"PR"},"geometry":{"type":"MultiPolygon","coordinates":[[[[21.091054116683726,49.27305892187442],[21.090783544526662,49.27319278030807],[21.090796628503686,49.272956707891865],[21.09103004946998,49.27269941072246],[21.091070628655046,49.27250598777009],[21.091116943202532,49.27230023489747],[21.091165327093364,49.272085185737566],[21.091213261771344,49.27187246279535],[21.09126596168282,49.271638286581066],[21.09125421041799,49.2715118786578],[21.091251899409553,49.271454370052524],[21.091226230866344,49.271031521278715],[21.091155477044385,49.270727952447416],[21.091262395554,49.27049172810036],[21.091333479119694,49.270247156512404],[21.09177873498924,49.269875727209254],[21.09209997009705,49.26953094127781],[21.092228653323417,49.26933664224027],[21.0923865158074,49.26912923181915],[21.092539126048308,49.269001413887814],[21.092549222218288,49.268995164783135],[21.092830637804063,49.26846851839791],[21.093072476485155,49.268037111848386],[21.09342974933788,49.26754088479568],[21.09407954819183,49.267233686333704],[21.0942950529573,49.267026044136486],[21.094455474160807,49.26659410533305],[21.09507495822127,49.26597922503447],[21.09513263970781,49.265832888867244],[21.095410498690903,49.26484223444172],[21.095602676391344,49.26449890068299],[21.09567805726422,49.26436420221219],[21.09558072436114,49.264341289499605],[21.095555996442048,49.26431133248566],[21.09544280355752,49.26415611939535],[21.095519821361606,49.26399392619582],[21.095618410942592,49.26376931548024],[21.095798901840606,49.26346089735781],[21.0959159319668,49.262970406645486],[21.095960246477166,49.26280032732356],[21.09608679559721,49.26248658572061],[21.09622795233526,49.262115245385736],[21.09650132751544,49.261861554845424],[21.096807854278797,49.26183668048764],[21.096659774422584,49.26162913159629],[21.096688128041315,49.2615218288234],[21.09669522646615,49.261494868414104],[21.09671708059976,49.261412024512644],[21.096710885724484,49.26116291270012],[21.096654972525997,49.260833443501625],[21.096428255040973,49.259545715713024],[21.096294644169696,49.25917550562151],[21.0962880840928,49.259056825551426],[21.096390492941996,49.25889337187558],[21.096450140514662,49.25876294188674],[21.096377411856963,49.25852628940433],[21.0963771563608,49.258326699591564],[21.096049918613048,49.25779744743295],[21.096037559523324,49.25773997802224],[21.09603481871606,49.257660489918564],[21.096076129581032,49.25759339117631],[21.0961718396631,49.257492109965696],[21.0962837604636,49.25741691287477],[21.09628701362181,49.25748030314772],[21.096371085104202,49.25766069331315],[21.096615545506765,49.25787222045084],[21.09691300320224,49.258134861512744],[21.09722271680459,49.25842318940544],[21.097309471500648,49.25850301832104],[21.097373709611627,49.25857123569428],[21.097394719422258,49.25867138192898],[21.09738287477834,49.258774980717114],[21.09730698796469,49.25890372248953],[21.097137596410647,49.259022908029316],[21.09706391995247,49.259109049203225],[21.097079665954062,49.25925953049968],[21.0971399543068,49.2594269174957],[21.097352776319152,49.25990633196895],[21.09745448312542,49.26032458482458],[21.09744553452681,49.260476078280064],[21.097341145898227,49.26069195307839],[21.097156726798723,49.260922287860865],[21.097060136761485,49.26109808097268],[21.09707691256277,49.26116460339039],[21.097044212756785,49.26163852181146],[21.097043784464468,49.26164426962227],[21.09703975202863,49.26167438869103],[21.097033356997102,49.26172144672381],[21.097039480579035,49.26200476491674],[21.097251434652083,49.26243688889326],[21.096915738558966,49.26302851918931],[21.09673028257947,49.26334830328494],[21.0966252495722,49.263617000470504],[21.096557172653394,49.263792172935545],[21.09629362875343,49.26430139303001],[21.096251315391346,49.26440770989528],[21.096381608117344,49.265066246706496],[21.096481615526514,49.26529692720216],[21.09635494451765,49.265580867500496],[21.09612903148256,49.265858218788935],[21.095715348882386,49.2660210973639],[21.095607318429042,49.266370448676646],[21.09581787393288,49.266592595917],[21.095240001661796,49.2671899937631],[21.09528902877099,49.26721325470057],[21.09445025586115,49.26794797581435],[21.094176547809763,49.26815204902611],[21.09396355402835,49.268381286796235],[21.093939672658056,49.268730983814386],[21.093865367903145,49.26887876900519],[21.09301815570186,49.26997672456747],[21.09229650615576,49.27071157266344],[21.092289005513145,49.27083052355408],[21.09227375618732,49.2711602409184],[21.09234262195895,49.27142836938826],[21.092420397903293,49.27158263323812],[21.09240985567788,49.27168519273849],[21.092204837747012,49.27237506032944],[21.091830924471203,49.27298670209445],[21.091794249137187,49.273046745800364],[21.09172058920731,49.273100926449374],[21.091552696911467,49.27314021269392],[21.091259909112743,49.27307774217746],[21.09123649269723,49.27307258267306],[21.091167116743957,49.27306199328631],[21.091112275580187,49.27305943033568],[21.091054116683726,49.27305892187442]]],[[[21.091096029881523,49.27193533303925],[21.091047479927433,49.27216919170888],[21.09093734970006,49.272669530956136],[21.09070705091242,49.27293475976165],[21.090679637268106,49.27324482323427],[21.090599171517905,49.27328510217223],[21.0904745854044,49.273426146921864],[21.090361363534107,49.27363057098957],[21.090203128277935,49.27379844698539],[21.089990218423726,49.27398176928955],[21.090015030129912,49.2735776386174],[21.089914350714526,49.273501681214704],[21.089898095309117,49.273411678541756],[21.089845252950692,49.27332338687559],[21.090000546496963,49.273034606261064],[21.090027725828573,49.27261902817377],[21.090501034223525,49.27234770540976],[21.090675003215036,49.272284128676155],[21.090926967047483,49.27209539189099],[21.09103151066642,49.27187997721116],[21.09108353604014,49.27177280210226],[21.091164175266034,49.27160667613835],[21.091096029881523,49.27193533303925]]]]}},{"type":"Feature","properties":{"NATIONALSITECODE":"718","SITETITLE_SK":"PR Zborovský hradný vrch","AREA_HA":25.5417,"category_code":"PR"},"geometry":{"type":"Polygon","coordinates":[[[21.29635725138526,49.350626385275916],[21.29735742219251,49.351146451496845],[21.298714640249425,49.35144540733293],[21.298859336374775,49.35192311801741],[21.298871189649283,49.351962088483944],[21.299046496868147,49.352540989629794],[21.29909244440641,49.352559565412164],[21.29910235226258,49.352563644237854],[21.30005868036585,49.35311431665587],[21.300756781794192,49.354122453894746],[21.300799039767625,49.35418358140475],[21.300073569455634,49.3555681018041],[21.29879728120275,49.3556922099557],[21.297488854487565,49.35640191568431],[21.297089731877506,49.356656578533745],[21.296614472887686,49.35657483641287],[21.296569036604424,49.356554835071165],[21.2964152168945,49.35648719240475],[21.296106176321523,49.356336652868805],[21.29558209511568,49.355996282168945],[21.295315807843156,49.35580823622936],[21.29457682490393,49.3551554426451],[21.294164456648474,49.35486262834481],[21.293953881007358,49.35471307281985],[21.29383239107792,49.35462678008565],[21.293596100751355,49.35445898644213],[21.293177398796054,49.35412340332313],[21.292972216661457,49.35400677146734],[21.292973958551364,49.35399188270771],[21.29323032730755,49.35176165966118],[21.29297093370005,49.35144150315902],[21.292967126727373,49.35143688785572],[21.292895151923645,49.35134803775302],[21.29290448410019,49.35134660925835],[21.293436679545948,49.351265371766104],[21.294120543316854,49.351161075554096],[21.29469963076102,49.35086468791106],[21.295321306199256,49.35054654005388],[21.29635725138526,49.350626385275916]]]}},{"type":"Feature","properties":{"NATIONALSITECODE":"518","SITETITLE_SK":"PR Demjatské kopce","AREA_HA":8.675,"category_code":"PR"},"geometry":{"type":"MultiPolygon","coordinates":[[[[21.29917447404564,49.10890129423355],[21.29973781082647,49.109230081164675],[21.298640006551146,49.109554923437855],[21.29764759203856,49.109925166685294],[21.29663262367602,49.11037024268711],[21.296605672912353,49.110388869629574],[21.29657915155586,49.110407239528364],[21.29571436243812,49.111005567245364],[21.295688991913675,49.11102316168859],[21.29564863944309,49.11105101401533],[21.295584499855014,49.1110135130342],[21.295519166821848,49.110975435734225],[21.295312782289724,49.11085485761032],[21.29527945694652,49.109866629955484],[21.2956034305696,49.10987294055653],[21.295809364821572,49.10978736557325],[21.29589706435857,49.109737453911436],[21.296039037376058,49.10965669106939],[21.296375315208017,49.10955040110959],[21.296595348311786,49.10944562839248],[21.296596200833502,49.109445204143235],[21.296981642287207,49.10926172754234],[21.297210880015417,49.10920737213097],[21.297312979370055,49.10917103827039],[21.297478080096266,49.109112308565635],[21.297841396432016,49.10905625310454],[21.298457729291624,49.10887472551866],[21.298896522391573,49.10882356349489],[21.299041974689462,49.108823917810945],[21.29917447404564,49.10890129423355]]],[[[21.295125882825893,49.111767185502316],[21.29514905956709,49.11177103873478],[21.29516275300459,49.111773254209545],[21.295460190330342,49.11182169845649],[21.295406452606507,49.11186048710455],[21.295290610426445,49.11196148517425],[21.2948195552603,49.11237136452565],[21.294402085004382,49.11273479786554],[21.294319645812443,49.11274688086808],[21.294297064024235,49.11275015687283],[21.294259209783725,49.112750269250654],[21.293665707348012,49.11275261461925],[21.29277500553702,49.1127400903668],[21.29243203763525,49.112695569045904],[21.292227814540304,49.112668939027],[21.292402923022294,49.11239429842739],[21.292761936023307,49.11210372267786],[21.29277758403815,49.11209375539337],[21.29286211644507,49.11204023908669],[21.29308730515931,49.1118975516559],[21.293178727182795,49.11183965325118],[21.29345093564271,49.11171855525817],[21.29349454087998,49.111708805729904],[21.293756725586572,49.111650234991494],[21.29390645205216,49.11156853945266],[21.295125882825893,49.111767185502316]]],[[[21.292807518379472,49.11362036397885],[21.292737992847847,49.113819083062374],[21.29271190115654,49.113893635869864],[21.292580286890935,49.11390881680279],[21.29249387939351,49.11391879782078],[21.292106357815456,49.11396357140068],[21.291019963992373,49.11393141412874],[21.290670467483856,49.11392107628917],[21.29055837255499,49.11394530905894],[21.289828430786706,49.11410309435554],[21.289698453347928,49.113987976764236],[21.289176741476822,49.11352591969412],[21.289359184013403,49.11341992824484],[21.289544756889118,49.11328117526084],[21.289708237581532,49.113269125723434],[21.289979736732732,49.11336270507705],[21.29000918835306,49.11337287099596],[21.290186727462622,49.11337538029894],[21.29036111308336,49.11337788361984],[21.29080307208993,49.11337203538947],[21.291223653027423,49.11349255096748],[21.291304570324474,49.11349626693499],[21.291488273134494,49.11350472239887],[21.291553610338077,49.11350769533597],[21.291599341265588,49.113500891518676],[21.291930250646686,49.113451881467846],[21.292416300593903,49.11344304412709],[21.292579067222274,49.113456713808276],[21.292617098529927,49.11345993796422],[21.292650085945755,49.11346273904127],[21.292781500955048,49.1134737470017],[21.292856612109567,49.113480076287786],[21.292807518379472,49.11362036397885]]],[[[21.289828395386543,49.10529650951373],[21.290158876773543,49.10543580969067],[21.290194841950388,49.10578166886237],[21.290165302312555,49.1059207492115],[21.29025693521508,49.10611085786703],[21.290853245129234,49.10627586999933],[21.29069221845493,49.106418880365695],[21.290541227222814,49.10649531220917],[21.2903093666342,49.1065577663657],[21.290172412041418,49.10658673461633],[21.289636155944503,49.10632632380104],[21.289293018688912,49.10620896232464],[21.289114945664174,49.10615017365483],[21.28882573588549,49.105860984667565],[21.28865047739927,49.10578562745595],[21.288357835948307,49.10565998494562],[21.288560609100827,49.10544605162473],[21.288606413618066,49.10539919356781],[21.288753693172573,49.105250907415915],[21.28885680381229,49.10520993076479],[21.289305453766065,49.10519178123514],[21.289828395386543,49.10529650951373]]],[[[21.288207667329218,49.10739195276224],[21.287733410007437,49.10741130105154],[21.287586691375587,49.1074172852774],[21.28729149919269,49.10728688196588],[21.28708021440916,49.10719350447312],[21.286382665887373,49.10713422739081],[21.286177528450104,49.10716174878005],[21.286055300477088,49.10717819740018],[21.286181325540415,49.10698930024558],[21.28646812707832,49.1068244635057],[21.2866264854386,49.10671171344045],[21.286713906821106,49.10673192383607],[21.28728551408882,49.10686415725514],[21.287406076264716,49.10684603644606],[21.287972590637217,49.10676071909672],[21.2881978367561,49.106819412262205],[21.288611431625664,49.10692730482675],[21.288653036846195,49.10693811046519],[21.288426496286252,49.10715069189882],[21.288207667329218,49.10739195276224]]]]}},{"type":"Feature","properties":{"NATIONALSITECODE":"638","SITETITLE_SK":"CHA Plavečské štrkoviská","AREA_HA":66.2462,"category_code":"CHA"},"geometry":{"type":"Polygon","coordinates":[[[20.862998129672462,49.2779717612657],[20.862901305442136,49.27756457168417],[20.862718370837214,49.277057941761015],[20.86233376282558,49.276795404272164],[20.861860300279307,49.276356979885094],[20.861814158970045,49.2763140875716],[20.861027763612874,49.27544006744904],[20.860565583885055,49.27511132478353],[20.860293367901455,49.27486168722435],[20.860038710460838,49.27462840137815],[20.85969515082342,49.2743952485853],[20.85969070579429,49.27416667297148],[20.859473481691204,49.27373729429854],[20.85925234855783,49.27326528465445],[20.859170282700536,49.2729397145218],[20.859137925310364,49.27234995125423],[20.859176836226677,49.27232777247886],[20.859158572609434,49.27229780023478],[20.859297950922322,49.272152169420416],[20.859286790345895,49.271954518483604],[20.85922543657198,49.27174606973706],[20.85920173781833,49.271630197295686],[20.85947271593485,49.271084675714654],[20.85903267337192,49.27083311796242],[20.858175333551216,49.270565587368054],[20.85775418843353,49.27030143056929],[20.85707470095129,49.27003308868625],[20.856852245149806,49.26993378351045],[20.85649148447909,49.269725515518736],[20.85605824726288,49.26955151911209],[20.855815515010566,49.26933672468371],[20.855860465306304,49.26894712798434],[20.855317510856914,49.26866126476689],[20.854148395463106,49.268311165945434],[20.853194324154696,49.26805840526645],[20.851559556029454,49.26742350070581],[20.8508138236351,49.26713260741553],[20.850196381885674,49.2668756974196],[20.849796177715017,49.266707301985434],[20.849230205382888,49.26618724546401],[20.849167685466508,49.26609967097593],[20.84887192774212,49.26582209924208],[20.8488508206023,49.26580031173236],[20.848675484840523,49.26556213380098],[20.848554933859816,49.2653097938683],[20.848378349513723,49.265123705060674],[20.848159140386976,49.26457042848694],[20.848038638020345,49.264239665898955],[20.84797259579998,49.26399917532],[20.84794698987296,49.26389728023224],[20.847897502466516,49.263699491277244],[20.84787362722812,49.26361044054986],[20.847856671543493,49.26354683621968],[20.847774811449067,49.26323710736807],[20.847733235023323,49.26308172566882],[20.847676050615924,49.26289078742422],[20.84815957092457,49.26280848027086],[20.848209815651515,49.26280118726849],[20.848257905599073,49.26278292621692],[20.848318527055486,49.26260356276593],[20.84829195322465,49.26241519776836],[20.848120105003595,49.26207449297758],[20.848032375592002,49.26189917186297],[20.84791804522072,49.261684678409914],[20.84788572358494,49.26162055074766],[20.847852498734802,49.26155567200518],[20.847800643220033,49.261434424911045],[20.847725168956085,49.26130571058169],[20.84766507055916,49.26120336090087],[20.847611731435535,49.26102984075921],[20.84750633423767,49.26087606683991],[20.847421818083067,49.260688068979924],[20.8473648387136,49.26051190357594],[20.847319075616156,49.26031406066887],[20.847300589655916,49.26012092839645],[20.84728475284179,49.259918702386685],[20.847157081689648,49.2597630888413],[20.847099771267114,49.2595859214688],[20.84702117049593,49.25941181046084],[20.84694810957659,49.25923896853955],[20.846841792016495,49.25908300142119],[20.846719265869407,49.258530581638134],[20.846435995055575,49.25813304432768],[20.84610471876649,49.257790865058055],[20.846028803240607,49.25770760366592],[20.84595569523838,49.25763920424337],[20.845925923928004,49.25761225865094],[20.84590637796955,49.25759511554325],[20.84569444475548,49.25745958864581],[20.84547257076869,49.25732453290924],[20.845478782182926,49.257301784664165],[20.845443005052488,49.257275984848455],[20.845392681717843,49.2572532008284],[20.84516031650017,49.25714110697885],[20.84497332541756,49.25707251721454],[20.844785511997987,49.25702118657843],[20.844477386148995,49.25695882167968],[20.844149227326795,49.25689928455405],[20.843787003773425,49.25684776911532],[20.843567338811763,49.25683370716818],[20.843170506786507,49.25684889926494],[20.84295194471812,49.25685900422945],[20.842657041307607,49.25688460327459],[20.842605845764023,49.2568883497768],[20.8425361040084,49.256895245417766],[20.842343475626297,49.256913076641915],[20.842200051980278,49.256929704483504],[20.84212634732048,49.256937995390416],[20.841896203658454,49.256948423706746],[20.841839463277143,49.256952701064485],[20.841649373700818,49.25700429239458],[20.841596264063586,49.25701652688901],[20.841428374369546,49.257065723763134],[20.841406999806456,49.257071567481276],[20.841165477841333,49.25714886549711],[20.84094415421243,49.257259266237554],[20.840672532225987,49.25733103441988],[20.840657105381496,49.257269101347774],[20.84044643443225,49.25732863235017],[20.840427860634332,49.25733385114697],[20.840213457077873,49.25740396905437],[20.840250868825585,49.25747484594339],[20.839900629922628,49.25753708681538],[20.83959749242007,49.25759517162891],[20.839341140055524,49.25764098641473],[20.839215626602158,49.25762787873746],[20.83901278025113,49.257678940512704],[20.838962572168764,49.25767200448672],[20.838663968756148,49.25774221693366],[20.838299151314352,49.25783889074627],[20.838250845575068,49.257866774539494],[20.83811337389891,49.25792258773096],[20.838037271475482,49.25792296085031],[20.837860134428333,49.257963823599994],[20.837681640019014,49.25804587776898],[20.837587893649587,49.258060504663256],[20.837536646619224,49.25808558657048],[20.837458390793504,49.25810434386366],[20.83740847269287,49.25814036585872],[20.837367095140625,49.25820558210096],[20.837341472645328,49.258209479268196],[20.837316946637124,49.258242766705756],[20.837162018586305,49.25830527595279],[20.83710660650878,49.2583946836513],[20.837055961346834,49.25843464241541],[20.837062893712236,49.25847710761575],[20.836979510818512,49.258548092449026],[20.83693888993655,49.2586020794782],[20.836943599729597,49.258636185162295],[20.836899998765244,49.25866197812465],[20.83656827102002,49.25758422221487],[20.836611854455047,49.257565541909116],[20.837069787554636,49.25745008357986],[20.838265640405783,49.25716668355894],[20.83847700542856,49.25711573384552],[20.838818772554124,49.257032048848245],[20.83937636707744,49.25690179576682],[20.839946718411074,49.2567736861991],[20.840789285764593,49.256547264929836],[20.841168994078927,49.25644478906236],[20.842790769101633,49.255997776645515],[20.842790418519122,49.2559572470943],[20.843006370163597,49.25594705355225],[20.843024296193732,49.25599835682883],[20.84377255676064,49.25597137696569],[20.844539282100317,49.25593187605035],[20.845314275287883,49.2560287907956],[20.84552661971068,49.256105447272404],[20.845899710767217,49.25624511569393],[20.846121928011776,49.25640521331131],[20.846366014406232,49.25657920121058],[20.846388199626247,49.25656834205625],[20.84640419619985,49.256597249299226],[20.84664202903119,49.25702808431727],[20.846708353764434,49.257181789108095],[20.84679626581427,49.2572525831938],[20.846778660660654,49.25726638965927],[20.846843384410324,49.257300108122344],[20.846863724678155,49.257284774122674],[20.84698599980303,49.25734899530583],[20.847509783101692,49.25761435306529],[20.847744643131954,49.257793785849266],[20.848023545388255,49.258000649106144],[20.84815988766583,49.258291164987895],[20.848255637025876,49.25851781149816],[20.848569111137806,49.259021897431644],[20.84856477655892,49.25962680929257],[20.848711561702792,49.260532012775094],[20.84939640395109,49.26248791368707],[20.850268897373553,49.263800476730715],[20.85075056129195,49.26484294385604],[20.851223812430696,49.265452938239676],[20.851700369104414,49.265662912982606],[20.852057878524064,49.26554253805637],[20.852548884726627,49.265898052077915],[20.85314735746752,49.26597278796849],[20.85342917735052,49.266057102618845],[20.854054642446087,49.26595996862313],[20.85433106945233,49.26589904649536],[20.854625595866075,49.2658891602569],[20.855773998890616,49.26540552196614],[20.85622277362094,49.265303452580866],[20.857064156502446,49.26477011310533],[20.856823937436655,49.26503377630567],[20.856819745525755,49.26522883598164],[20.856899099812605,49.26525350121294],[20.856950977272653,49.26519962028119],[20.857528982694145,49.2648176869428],[20.858085188826994,49.26447111576813],[20.858459122005915,49.264759241073264],[20.859310316907493,49.266080096095195],[20.859514188222267,49.26604226914305],[20.85967685321669,49.266029604029306],[20.859922750528362,49.26628951697589],[20.8601376060448,49.26668766374136],[20.860746541666977,49.267267735733846],[20.860878187612773,49.26833923814387],[20.86100011366681,49.26889107386769],[20.861204019856043,49.269736692116304],[20.861210740535103,49.27004601859807],[20.861119970862067,49.27042397672828],[20.861112770833262,49.27055302609944],[20.861262180725827,49.270697383877],[20.86136748473747,49.27053015615717],[20.861670671788968,49.27035397603172],[20.86199160176991,49.27032893958278],[20.86190686431993,49.270075130607836],[20.86221467715048,49.26984571399845],[20.862002983151772,49.2695618472857],[20.861952169132934,49.26937482638897],[20.862168192043356,49.269114294119554],[20.862614590958703,49.268858335239834],[20.862555159996408,49.26867759502707],[20.8631223394117,49.268925618813924],[20.863599175601312,49.26907225508922],[20.8640929599409,49.26913347843656],[20.864629257416574,49.269347673687285],[20.86489056129811,49.2693683276547],[20.864939852907302,49.269334884237814],[20.86514764311586,49.26941972065386],[20.865299221182944,49.269467266563225],[20.865605908530522,49.269538617610706],[20.866106373645483,49.2696963083128],[20.866439438687966,49.269846433129054],[20.866611957102773,49.2696033269172],[20.866611702540695,49.26951787310423],[20.866885133952103,49.26945483890645],[20.867238900781942,49.269357250718556],[20.86755647138635,49.26980234882938],[20.868134497301547,49.27014156162336],[20.868267071103674,49.27020502654285],[20.868339142853454,49.27033757116707],[20.86851076009328,49.27058585349555],[20.867885279348513,49.27092985642923],[20.8672594013375,49.271019668427044],[20.865654203963505,49.27079708272133],[20.86545167264124,49.271146314529794],[20.86397837402505,49.27139880087605],[20.86421082009593,49.273386058711026],[20.863624600714495,49.27177243365783],[20.863040421422625,49.2716135143345],[20.86309889615003,49.2708926786356],[20.86276205830509,49.2708926885033],[20.862233620026288,49.27084315987724],[20.861709687856386,49.270768031030634],[20.861231434602715,49.27084922404406],[20.86109371547743,49.27097924671279],[20.86084891995973,49.27157833180865],[20.860524267474496,49.27249911092804],[20.860401863357463,49.27266845876994],[20.860387071237188,49.272730082524056],[20.86038566412277,49.2728676118436],[20.86062288016826,49.27305870822722],[20.860621797905026,49.27330672432488],[20.86061894267371,49.27387917467148],[20.86114622243856,49.2744819490531],[20.862078488186473,49.27496673483707],[20.862659632135745,49.27548228156023],[20.86279373441329,49.27568635203245],[20.862947168485086,49.27581490655431],[20.863244111524597,49.27606357497997],[20.863668290764547,49.27633555469441],[20.863163349492993,49.27671306450945],[20.863657295548308,49.277367365948514],[20.863634111499323,49.27779209454481],[20.86341687295147,49.277379652065214],[20.862998129672462,49.2779717612657]]]}},{"type":"Feature","properties":{"NATIONALSITECODE":"774","SITETITLE_SK":"CHA Radomská slatina","AREA_HA":1.0308,"category_code":"CHA"},"geometry":{"type":"Polygon","coordinates":[[[21.565287993471287,49.20828065266635],[21.565424103026608,49.20854896204011],[21.56548968455358,49.20870424227213],[21.56543499121118,49.208827002677324],[21.565464698260513,49.20891720146836],[21.565539194181763,49.20904105108728],[21.565265781502507,49.20938170801248],[21.564168480311523,49.20970906105799],[21.56440368442612,49.20934987891394],[21.56465576089411,49.20870614136795],[21.56436603835273,49.20822330059929],[21.565171074147525,49.208021429141404],[21.565287993471287,49.20828065266635]]]}},{"type":"Feature","properties":{"NATIONALSITECODE":"1285","SITETITLE_SK":"PR Pralesy Slovenska-Busov","AREA_HA":28.0754,"category_code":"PR"},"geometry":{"type":"MultiPolygon","coordinates":[[[[21.16459306643914,49.38803039573755],[21.1638551254231,49.38760487671298],[21.163769914026688,49.3876340626264],[21.16355384976475,49.38770806597238],[21.163202958437815,49.38786164138883],[21.162595694503842,49.38807200927009],[21.162198783064298,49.38810289361093],[21.16205331840734,49.38816469097897],[21.161762827691174,49.38828809999115],[21.16142177003581,49.38843527636972],[21.161397564346803,49.38844572146597],[21.160906498418925,49.388618939286154],[21.160813242581597,49.38866180208792],[21.1605863523762,49.38876608437967],[21.160370340010118,49.38886536607395],[21.160199700896328,49.38900332948464],[21.16018703565626,49.38900743749268],[21.160173041182833,49.389011976481285],[21.15974004485278,49.389152411537694],[21.159468021212852,49.389253539371296],[21.1592741408395,49.38932561548775],[21.159094419460214,49.38939242846885],[21.159071619173,49.38940090438041],[21.158285523554763,49.38961618328467],[21.158016583265592,49.38968983303476],[21.158002679330004,49.3896936409932],[21.157864884174252,49.38973137598568],[21.157550522518626,49.38979421313767],[21.15684015240209,49.38993620485365],[21.156477562192425,49.38999703995613],[21.156426121879626,49.390003181678296],[21.155438347588014,49.39012111034026],[21.153683196665575,49.39015846190633],[21.153341791284223,49.39023029602413],[21.153324116322985,49.39023401493214],[21.152629476578525,49.390380169050935],[21.152611667260068,49.3903949509466],[21.152282423447353,49.3906682256092],[21.15189017850264,49.39095756444444],[21.151570247315494,49.39115455652726],[21.15113399470964,49.391423167749046],[21.151001892193765,49.39145169220218],[21.150408544404897,49.39157980994693],[21.15043076922792,49.39162632470985],[21.150491581765827,49.39175371309779],[21.1505526301102,49.391881648922364],[21.150568266660105,49.39191463478019],[21.150574285969917,49.39202950418135],[21.15059054237325,49.392340221094585],[21.150598002043722,49.39248284038061],[21.15059698718882,49.39250396560111],[21.15058049066366,49.39284604495037],[21.15057203401608,49.393020943750145],[21.15056994745549,49.39306426537303],[21.150583313155412,49.3931618105027],[21.150585949157346,49.393187817422614],[21.150602838453832,49.39335550449377],[21.15061102577261,49.39343722460512],[21.150610681530864,49.39352992891236],[21.15061052068622,49.39360328581673],[21.150622119017257,49.39370586399694],[21.150642591837553,49.39388693788508],[21.15064539033595,49.394067525734904],[21.150646836592532,49.39416080556367],[21.15064310788908,49.39427096912593],[21.15064167564405,49.39431330848671],[21.150657207318535,49.39464928019174],[21.1506542758409,49.394732733498024],[21.150645913336422,49.394970839757846],[21.150951307532125,49.394947680797614],[21.15102887831061,49.39488418266605],[21.152138557716707,49.39476898255871],[21.152652450168247,49.394304116876164],[21.153186333374684,49.39408652813149],[21.154073793483196,49.39389320760487],[21.154960650508894,49.39326709581212],[21.155251467006206,49.39244325102596],[21.15702940490593,49.39229066475872],[21.15783638143287,49.39195680299453],[21.157850433374023,49.39195098965318],[21.157875239062527,49.39194072693656],[21.158344175302187,49.39161319781228],[21.159179813201302,49.391211566227554],[21.159784670534822,49.39081935376121],[21.16138881792368,49.39010356977324],[21.16354450789851,49.38954871530193],[21.16364844615926,49.38912843758589],[21.165393469432853,49.3886065644971],[21.16459306643914,49.38803039573755]]]]}},{"type":"Feature","properties":{"NATIONALSITECODE":"1332","SITETITLE_SK":"PR Pralesy Slovenska-Sivá skala","AREA_HA":43.5771,"category_code":"PR"},"geometry":{"type":"MultiPolygon","coordinates":[[[[21.118731153971112,49.41173246225375],[21.118919241137636,49.41163766287082],[21.118841932007786,49.411606229008605],[21.1187418393403,49.41157740684168],[21.11853968143192,49.411511723541274],[21.118372797984225,49.41148595434075],[21.118228652524262,49.41147114890071],[21.118020327706574,49.4114748041305],[21.11774611285232,49.411519916838195],[21.117488982442445,49.41156773976454],[21.117272235370432,49.41158389505215],[21.116982151013534,49.41158494426552],[21.11647229680777,49.41155574851829],[21.11643583715909,49.411551417932905],[21.11672300389665,49.41085887875415],[21.11671439264114,49.4102561419099],[21.116920112976285,49.409988944366255],[21.11775686631955,49.40978600426712],[21.11781424271652,49.409785325265105],[21.11790323016933,49.409770685705446],[21.11881422999527,49.40876765940192],[21.119580091080124,49.408418734525995],[21.119574027800564,49.40796444044888],[21.119956426429003,49.4073633574936],[21.120327909120142,49.40732267246197],[21.120995400184185,49.406910549475796],[21.121248963124426,49.4064975610553],[21.122340698386978,49.40606000311162],[21.12284940517498,49.40593708424914],[21.123190843462684,49.40589908053409],[21.123254840073265,49.405891956925394],[21.12373562730543,49.40547681080298],[21.124316777431183,49.40553716005113],[21.124981346824995,49.405235589860176],[21.125280654070043,49.40497835774261],[21.12584556568303,49.404793625017355],[21.12599656266866,49.40443967641075],[21.125693813643952,49.404369058886985],[21.125707890540056,49.403687189680575],[21.126684704407165,49.402980803365544],[21.126685946141087,49.40297947792634],[21.127683131494926,49.40191426478381],[21.12796106508194,49.40078463461398],[21.127329379879104,49.400561622424874],[21.12690648652897,49.400617475834984],[21.125607078512953,49.40077529461892],[21.12365745646267,49.40131429877103],[21.12341973310285,49.4016830589114],[21.12331895970891,49.40183937854072],[21.123123959394988,49.40214185819262],[21.122905530208993,49.40248067656491],[21.12254997857424,49.40303218419646],[21.12213617261889,49.40320581434811],[21.121910565278437,49.40330047714237],[21.121415266931315,49.40350829605215],[21.120988669389117,49.40368728623452],[21.120965103807464,49.40369717387531],[21.1207850673827,49.40391065987858],[21.120380290209752,49.4043906349557],[21.12029866987424,49.404487416420366],[21.119964989449667,49.40487033720253],[21.119766979119998,49.405097564153685],[21.11949323171624,49.40530715393543],[21.11926837997713,49.40547930553976],[21.117553924861163,49.40573490128494],[21.11693048717652,49.40618496595427],[21.116695517026983,49.406382014373975],[21.116067203440455,49.406908915853755],[21.11560681498628,49.4077644022622],[21.1154806580024,49.40799882048104],[21.11541302680647,49.40812448779769],[21.114859908931678,49.40898976127186],[21.11445369996314,49.40962519630584],[21.11432654634815,49.41046111018131],[21.113973820514385,49.41116314084158],[21.113924807515954,49.41126068909405],[21.11376609149121,49.41157657332808],[21.113318951220016,49.412063802156325],[21.113185660295823,49.412209040058116],[21.113066319095793,49.41233907851965],[21.1130235155598,49.412371828801945],[21.112983030664864,49.412402805390066],[21.114115383746466,49.41323597273338],[21.11573647268402,49.41406300767481],[21.115747551035433,49.41405444137176],[21.115970394970073,49.413937183056966],[21.116267040499167,49.41383675269744],[21.11649108210171,49.41376273897022],[21.116648082839518,49.41365887838527],[21.116810883647023,49.41346770574927],[21.11699359826693,49.41329444609833],[21.117208467750263,49.41303380807947],[21.117383340245254,49.41276740339873],[21.11766846538996,49.41244129562532],[21.11794750144965,49.41214695021939],[21.118171437769362,49.41199623674778],[21.118421640764517,49.411867057399505],[21.118731153971112,49.41173246225375]]]]}},{"type":"Feature","properties":{"NATIONALSITECODE":"1338","SITETITLE_SK":"PR Pralesy Slovenska-Stebnícka Magura","AREA_HA":14.0278,"category_code":"PR"},"geometry":{"type":"Polygon","coordinates":[[[21.24909082464152,49.35464400690789],[21.249411164153596,49.354159366469496],[21.25048472562347,49.35416650747178],[21.25221765334946,49.35373390642755],[21.252247636089134,49.35373275149226],[21.253455754005227,49.35368474639808],[21.253794650838785,49.353733792514696],[21.255205722113757,49.35362418456928],[21.256090281946058,49.35331236415954],[21.256790817152552,49.353055503583],[21.257422549273098,49.352652615509044],[21.25751151881257,49.35261266283688],[21.2585733700081,49.35207706330568],[21.260027341163646,49.351147455231086],[21.26002949669741,49.35114428053404],[21.26004120188353,49.35114436707493],[21.260599391338673,49.35108396105779],[21.26096235947034,49.35168368078834],[21.261912903743376,49.35267465052928],[21.25849684789754,49.354302479207746],[21.2532228824501,49.35587352976185],[21.253569745358504,49.356379800794265],[21.253430164430142,49.35632576584083],[21.249327994442613,49.35473595300007],[21.24909082464152,49.35464400690789]]]}}]}