{"type":"FeatureCollection","name":"tmpzj27lvn9","features":[{"type":"Feature","properties":{"SITETITLE_SK":"PR Salamandria"},"geometry":{"type":"Polygon","coordinates":[[[21.20032765039784,49.1923824168888],[21.20038176140479,49.19227427461729],[21.2003363415386,49.19218635420137],[21.200296093288763,49.1921085866654],[21.200262955826418,49.19204454305045],[21.200143073940666,49.19181261738294],[21.200091145059233,49.191712161833706],[21.20004799573635,49.1916631102966],[21.19961360874201,49.19116899312372],[21.19951548464459,49.19112804458474],[21.19942668690515,49.19109107669273],[21.199332824839164,49.19105197085681],[21.199307228482898,49.191041272954635],[21.19912817833179,49.19096657137645],[21.199035127865347,49.190887791808514],[21.198927111865117,49.1907520144509],[21.19874329602788,49.19040161351516],[21.198721941546165,49.19036647195927],[21.198650331198866,49.19024766970656],[21.198645539383957,49.1902398690274],[21.19860962554394,49.190176278576786],[21.198464508712377,49.18991935061789],[21.198385265636098,49.18977888607594],[21.19838161619913,49.18977238118328],[21.19837722257273,49.189764772910756],[21.198373697169536,49.189758451914464],[21.198400090838625,49.18975243116057],[21.198271338830402,49.1895825207996],[21.198080923888224,49.189441029282065],[21.197874873899476,49.18939600254263],[21.19748968589616,49.189412288337145],[21.19736346907174,49.18945211202666],[21.197145063618123,49.18947340440876],[21.19685840805306,49.18940732428696],[21.196514371806714,49.189323794697884],[21.195931706549583,49.18912742523803],[21.19565442071403,49.1890723459859],[21.19524754399528,49.18889512645085],[21.194606086578418,49.18878622006947],[21.193820485868947,49.18873520599575],[21.19370962801982,49.188735535070585],[21.193600695120082,49.18873583395979],[21.193499181450623,49.18873609371608],[21.193124722129944,49.18873703557699],[21.193023893611727,49.18873731625767],[21.19224721641318,49.18873941130259],[21.19200277983894,49.18860072739952],[21.19177039669889,49.188413267388306],[21.19161482159826,49.18811171363909],[21.191508633062195,49.18797949615318],[21.19136808770206,49.187879785631395],[21.19112762851096,49.18776966998343],[21.190140910535785,49.18747164897378],[21.18968482339113,49.18738631624377],[21.18931750521977,49.18730221882892],[21.18835807417118,49.18728130568271],[21.188064194745085,49.18723937343022],[21.187806139962447,49.18722421361589],[21.187640028880896,49.18718356455865],[21.187477549439297,49.18707965406218],[21.187265198306395,49.18694385070108],[21.187173913856036,49.186812723820836],[21.18699204203456,49.18665248486867],[21.186759597473802,49.186528656504215],[21.186431025166083,49.18653145807761],[21.18594083981072,49.18642227106991],[21.185799475718635,49.186390763412234],[21.18560491985811,49.18632392781519],[21.185328515301585,49.18622681095031],[21.184492661024255,49.18576042854503],[21.18442983327347,49.185725429516566],[21.184206769133123,49.18559549705192],[21.184063040719753,49.18552286386454],[21.183731132590413,49.185331648604084],[21.183544315128195,49.18527747383467],[21.18318592643246,49.185085970102165],[21.182788347302466,49.18501422921309],[21.1826767296993,49.18469260902215],[21.182641554389946,49.18442648870701],[21.182607586681083,49.184427138111666],[21.182402575348146,49.184268148787524],[21.181735269893892,49.18375092620178],[21.18096773252973,49.183261984364904],[21.17886952720858,49.184824428676464],[21.178286699225968,49.18460356607962],[21.178251272185324,49.18458652443391],[21.17740210773456,49.18490222632458],[21.176776145222163,49.185028659108326],[21.17645990057624,49.18507160740908],[21.17557230086493,49.18516617193788],[21.175225816968517,49.18514911660522],[21.17464065867496,49.18518094254383],[21.17464155786145,49.18515540462075],[21.174621616387675,49.185163332414504],[21.174596474289256,49.18517289783369],[21.17407210985811,49.18537118313235],[21.17385022355729,49.185470461346185],[21.173665691671747,49.18556784806261],[21.173345100095606,49.18573065058023],[21.172915120058775,49.1859320665488],[21.172547360750585,49.18615028338519],[21.17223259618273,49.18651374337331],[21.171822027841454,49.18721916374172],[21.17128130223996,49.18783345427556],[21.170676093681145,49.18822066828398],[21.17048996667618,49.18833969560581],[21.16967226358768,49.188640486590046],[21.169188295228917,49.18885469117112],[21.168997246417373,49.18900155869666],[21.168926568594518,49.18910997948701],[21.168908122994402,49.189430508134684],[21.169001735674776,49.18973807574152],[21.16917465417201,49.18998088315182],[21.16932313289268,49.190214192063785],[21.16945540677178,49.190711025801754],[21.16954804529696,49.190873897597164],[21.169647164844342,49.19094983164874],[21.169777365277714,49.191049695190294],[21.16986224308334,49.19128884165017],[21.169857817254503,49.19163942642608],[21.169596074485803,49.19252729630434],[21.169547011582942,49.1927460409498],[21.169383287561267,49.19290789909585],[21.169105884410456,49.1933513815707],[21.169062608733018,49.19364700566827],[21.168774154511247,49.194258751118426],[21.168586232394475,49.19475580956088],[21.16842249808001,49.195117153606645],[21.168422491524232,49.195117243422494],[21.168112256603656,49.19572794449983],[21.1679957171637,49.19584725985693],[21.167755540703823,49.19603444554597],[21.16768874463967,49.19607259068044],[21.167701812884058,49.196083622968466],[21.167701943376336,49.19608371708156],[21.168021048343974,49.196320666251104],[21.16804549844727,49.196331965326],[21.168311500759604,49.196455262125305],[21.168341844168257,49.19646674588939],[21.168347854097767,49.19646909481208],[21.1692631611093,49.19681664132209],[21.16952019041794,49.19687096772037],[21.16975706168785,49.196921060984],[21.169968913010276,49.19696577865543],[21.170111771697265,49.197086292476456],[21.170439069276252,49.197107620272725],[21.1710904852912,49.197297448093046],[21.17123575118406,49.19733980744826],[21.171236423347967,49.19734000854573],[21.171322445781822,49.197107928010404],[21.171380007861096,49.1971097310667],[21.17185553332733,49.197179898143276],[21.17201703718639,49.197020307634574],[21.17211796135395,49.197043453019425],[21.17218307754108,49.19705845529121],[21.17231876054877,49.19713616154019],[21.172354782435296,49.19715079273439],[21.172573052779423,49.197273304737074],[21.172612773407874,49.19729561343282],[21.172637054756724,49.19730924675631],[21.172893814911983,49.19739560458107],[21.172944364371702,49.197412580883075],[21.173340564671282,49.1975458833752],[21.173437388043403,49.1975574665136],[21.173954854725228,49.1976195756008],[21.174101512928555,49.197637219096165],[21.174173697738386,49.19786813164376],[21.17436876096691,49.198082995286974],[21.174394704282015,49.1981115336796],[21.174331133593565,49.19815446453721],[21.174294436306123,49.19817924202716],[21.174300681556375,49.19818213811681],[21.17478203113185,49.198406320768974],[21.17507833030655,49.198500662316896],[21.175282251362024,49.198539360474236],[21.17543699036817,49.19856868767081],[21.17632607695518,49.19860784433174],[21.1763312589557,49.19860836650781],[21.176516322723206,49.198628738514415],[21.17707233726637,49.19868987849089],[21.177335490803355,49.19871881270604],[21.177354451089883,49.19871499460132],[21.177939797281574,49.19859592597818],[21.17810907488972,49.19856142937438],[21.178242301258074,49.198514552860594],[21.17847456740631,49.198620566781614],[21.178602735149195,49.19867903593175],[21.178903871998934,49.198833472449415],[21.179203822935314,49.19898724091082],[21.17938306931297,49.19910833955361],[21.179467909151132,49.19916572357702],[21.17967456757334,49.19935942480936],[21.179737879722285,49.19945025364019],[21.17992520070898,49.19971905731151],[21.179933416655107,49.19973074665471],[21.1800983133475,49.19993772529743],[21.180103096860147,49.199943726100415],[21.180139988038164,49.19998988908144],[21.180234901692106,49.200108981206206],[21.180356875710117,49.20015825263069],[21.180476254367008,49.200184667647655],[21.180682393760883,49.200208121822484],[21.180867421628193,49.200281957708576],[21.180953891664405,49.2004038460786],[21.181012681242713,49.200534231797725],[21.181126704784415,49.20078724029203],[21.181146347264693,49.20083070359352],[21.18151022451019,49.20094253229489],[21.181707207874595,49.20100314703946],[21.182024055715228,49.20110054227863],[21.1820976907387,49.20112318644009],[21.182497057430005,49.20126654707493],[21.18341134285317,49.2015946797912],[21.183425357676125,49.20196879138914],[21.18344557428341,49.20210076202928],[21.183473882926524,49.20228582713903],[21.183526961403036,49.202491109800036],[21.18342451669121,49.202779667433326],[21.183343821228437,49.20300715005707],[21.1831810928308,49.203384115888014],[21.18313155709931,49.203409755574505],[21.183127008023934,49.20393146070026],[21.183008008548807,49.204126420280446],[21.182933580934986,49.20485713109259],[21.182945674073196,49.20507058637315],[21.183321833287906,49.20532763393885],[21.183538180920184,49.20547553869509],[21.183544544991268,49.20548248884917],[21.183671010852528,49.20562137636651],[21.183795950020713,49.205758595704744],[21.18380894981981,49.20560434692246],[21.183819644710564,49.205478022444126],[21.1839295048178,49.205331297734425],[21.183975993342575,49.20532491689906],[21.18411575258448,49.20530551338896],[21.184153083054564,49.2053003770143],[21.184890996321236,49.2051981859085],[21.1853216178563,49.20537140697421],[21.185474920248605,49.20526393470526],[21.18562026594881,49.20522435918014],[21.185838339554433,49.205165177323565],[21.186392280667913,49.205117911369186],[21.186779874010572,49.20536531162066],[21.18720751872057,49.205500174173764],[21.187340412539157,49.20552799323875],[21.187612277766473,49.20558508066907],[21.188016256954533,49.20538180785078],[21.188446622277965,49.20516513309393],[21.188544732307975,49.20511570974365],[21.1886118903499,49.205081975205886],[21.188693884517264,49.20504069130476],[21.188755488892546,49.205024787549654],[21.18883104783786,49.20499644587213],[21.18894940549996,49.204951974240586],[21.189791064542927,49.20507074394683],[21.19061505901143,49.20502593144269],[21.19088238929189,49.20514363326509],[21.190964260389052,49.20517976093426],[21.191122291109554,49.20524931763158],[21.190828936883022,49.2054277807098],[21.19083092355907,49.205447736949004],[21.19085016885981,49.20563503729181],[21.191909433133883,49.205909551999376],[21.192332024307163,49.206044237796476],[21.192369891716204,49.20605252844464],[21.192527164670896,49.206087131876934],[21.192644279070198,49.2061128330951],[21.19304028711541,49.20612534219678],[21.193168867537917,49.206091446824914],[21.19328498075389,49.20606085401877],[21.193716933213707,49.20594710216732],[21.193942852896214,49.205887609512374],[21.19414441014114,49.205821146877405],[21.194157222835084,49.20581686462515],[21.194215072526166,49.20579778050544],[21.19419787160081,49.20579247414774],[21.19414304408243,49.20577555450211],[21.194118048909345,49.20576784508811],[21.194100854115227,49.205688542883884],[21.19418977259291,49.20562370561021],[21.19451281804041,49.20538800585602],[21.194465923790602,49.20527870317704],[21.194462162335004,49.2052699442497],[21.19437517253131,49.205067483829396],[21.194527033882895,49.20497201809804],[21.194541144392016,49.20496309518417],[21.194482913283466,49.20489268818522],[21.194385776926488,49.20477525045669],[21.19457467696392,49.204697590966965],[21.194617865038428,49.20467985081377],[21.194536161085054,49.20457126525375],[21.19445257714703,49.20446019058701],[21.195756317784024,49.204307034686984],[21.196277013133805,49.20462353688244],[21.197525156180422,49.204667034541615],[21.19752189676446,49.20471014247161],[21.19751922278328,49.20474516686494],[21.19751772618498,49.204763934369176],[21.197521971266536,49.20485138511301],[21.19774205345354,49.20487236118552],[21.197846298156136,49.204882263760226],[21.19821033248054,49.20491689646996],[21.198254056756955,49.204931578620396],[21.19854926482941,49.205030684835044],[21.1986281359949,49.20505708165023],[21.199394265331296,49.20531422360095],[21.200306658987117,49.20530071621256],[21.20054406330299,49.20532726616885],[21.20068252154856,49.20534282007347],[21.20084224698985,49.20536065482783],[21.200845249697345,49.2053609281459],[21.20143944016724,49.20541413264966],[21.201526651701148,49.20544870816595],[21.201876295518225,49.20558739438567],[21.202297862593994,49.20565485739207],[21.202360236450716,49.205628258216144],[21.202390852303907,49.20561525595006],[21.202893484969948,49.20577381265335],[21.203380407258134,49.20592737843668],[21.203491988676838,49.20596315901526],[21.203553558906915,49.20597047140558],[21.203981181214896,49.20594854730244],[21.204355954544646,49.205887983740986],[21.204501614782547,49.205868559158084],[21.205086760972403,49.20579039666677],[21.205377286425193,49.205773935559684],[21.205523107131324,49.20576558702055],[21.205550006295283,49.20576408107005],[21.20567574226312,49.20574088624622],[21.205810922214024,49.20569917033433],[21.205883152525995,49.20567683593535],[21.205987839570895,49.20565973921955],[21.20600869342607,49.20565633527724],[21.20611739540238,49.205640713276026],[21.206246263261587,49.20563120784362],[21.20674180209512,49.205644687373066],[21.2069626944295,49.20565072785068],[21.207614686415898,49.20568363860155],[21.207693691018417,49.205689238920776],[21.208015852216324,49.20571219018046],[21.208819817156325,49.20576951982679],[21.208945762097006,49.20580430000668],[21.208949287253905,49.205804949382234],[21.209243283463717,49.20585456992008],[21.20999505943513,49.20586220395203],[21.210717592271067,49.20586955731526],[21.210742853827167,49.20586979980975],[21.210777038527986,49.20587013869842],[21.210954926345227,49.20590859624702],[21.211018564772026,49.205974840840106],[21.211142903143088,49.20610426826683],[21.211363833586702,49.20637639611973],[21.211373552878605,49.20638830954981],[21.21142073871575,49.20644648271585],[21.211427296688445,49.20645460746539],[21.211449883726395,49.20648240262369],[21.21149366662148,49.20653632950248],[21.211578061836345,49.20663481309854],[21.211746846781697,49.20683186991238],[21.211751405928513,49.20683723218118],[21.211793443228984,49.206884893586064],[21.211828877151206,49.20692505897415],[21.211890913703208,49.20696973897518],[21.21195932696906,49.20706124595276],[21.211984391606407,49.20709469885162],[21.21216236558651,49.20721012276437],[21.212286421867336,49.20725402252062],[21.212407657913076,49.207297024644134],[21.212589336130254,49.20729634884274],[21.212595654939943,49.2072963644566],[21.212617091833184,49.20729630806181],[21.212678523753354,49.20729604972053],[21.212757945925127,49.2073663826341],[21.21280473216093,49.2073939365274],[21.2128505847703,49.20742110142068],[21.213047995505697,49.207537575735415],[21.213111511678623,49.20757509935994],[21.213286674097187,49.2076400241059],[21.213582677885398,49.20774964753195],[21.213813378409643,49.20783510439599],[21.21448965586086,49.207893662438906],[21.214579495574082,49.20790148365213],[21.214715214795437,49.20791324503673],[21.214715488966675,49.20791325352081],[21.214716435617074,49.20791346285096],[21.21476954093961,49.20792770870985],[21.215323276720703,49.2080757286788],[21.21569147981656,49.208176868123275],[21.216046881208126,49.20827454974601],[21.216525999477785,49.208382808070425],[21.21658278008398,49.208395636434396],[21.21704486057903,49.2085001249533],[21.217246432526885,49.208528502672834],[21.217573311845225,49.20776139437107],[21.21758074868127,49.20774398078041],[21.217616657355222,49.20774329071425],[21.219161416084088,49.207715519034025],[21.21959489834125,49.207707671447054],[21.22071037322546,49.20799400746979],[21.22098098634156,49.208063399337405],[21.221404705604733,49.208172176512704],[21.221373511590198,49.2080405071401],[21.221313022885393,49.207785148569016],[21.221205426694453,49.20759638831425],[21.22105307228833,49.207418667787564],[21.22102302626069,49.207383712891115],[21.22087383357898,49.20711625189232],[21.220668795176564,49.20693564294691],[21.220439682506516,49.20666004100862],[21.22019052990591,49.20616660597208],[21.220036783034097,49.20547960898453],[21.219958585127674,49.20543416399621],[21.219786759214347,49.20533433532103],[21.219818775794845,49.205296076863455],[21.21984207242403,49.205268261075226],[21.220068208374027,49.205016267182074],[21.22011538334402,49.204981177594355],[21.220205622882347,49.20488602638731],[21.220398689771137,49.204683060113894],[21.220681842831457,49.20438511731644],[21.221071990117064,49.20422685652763],[21.221494951609323,49.20412802976422],[21.22155476830137,49.203583018266016],[21.221687260293482,49.20332821900782],[21.221527065423775,49.20274787577738],[21.221411682449155,49.20254528174871],[21.221046442544097,49.202384298656156],[21.220945639678416,49.20233995614773],[21.220330553716085,49.202010479134785],[21.220312571505,49.202000741630904],[21.22016015725577,49.20182985841255],[21.219987279085068,49.201636018047175],[21.219959733192752,49.20152057368288],[21.21983222174638,49.20149997966738],[21.21971557244417,49.20148116150485],[21.219392518896374,49.2014289582649],[21.219161613303044,49.20137717201472],[21.218403229954355,49.201208527929936],[21.21839362749628,49.201206430682085],[21.21770364485761,49.20106852245888],[21.216608878087584,49.20084985565847],[21.21626079453117,49.20076572289382],[21.215864641471597,49.200670019754526],[21.215776340003092,49.20064865390719],[21.215772736300437,49.20064719213136],[21.21536206787133,49.20048415440454],[21.214974748969034,49.20030023331067],[21.214901483399657,49.20023036203044],[21.214824227970183,49.200156766474954],[21.21469954221474,49.20003795391405],[21.214637065731523,49.19997849842998],[21.214633598056967,49.19997515043743],[21.21438333561651,49.199828055741904],[21.21437555315257,49.19982358398215],[21.214285153189877,49.199770375433886],[21.213987839015516,49.19959571799484],[21.213976772497542,49.19958916413528],[21.213316473211417,49.199217199122415],[21.213214650923046,49.1991471625911],[21.21319292841157,49.199132177029156],[21.213005170745937,49.19892229100552],[21.213000468649717,49.19891701434164],[21.212912530154796,49.19871922085549],[21.212912022317454,49.198686258301265],[21.2129118185515,49.19867193902485],[21.212911010853077,49.19862789488934],[21.212873645072335,49.198566965416745],[21.21287229932896,49.19856467327714],[21.212672099789916,49.198237827076035],[21.212544217662707,49.19811585218145],[21.212478152802557,49.1980852702291],[21.212394062390484,49.19804368779876],[21.212136236363698,49.19791597748288],[21.211886218258005,49.19776573365975],[21.21157747176264,49.19756893062491],[21.21151405464939,49.19753212878642],[21.211392639176633,49.19746148345093],[21.211257417590346,49.197422276903055],[21.21108249673607,49.19737166808374],[21.210916920034006,49.19731720764486],[21.21074527146169,49.19721934977681],[21.210491191817507,49.19711407627662],[21.210316470660278,49.197041687866765],[21.210286325681643,49.19702923127133],[21.21013080960999,49.19696481927003],[21.210005040558997,49.19691267135719],[21.209482143096874,49.19672371812093],[21.209474981999247,49.19672016544918],[21.209349979201285,49.19665741830097],[21.209306728488233,49.196628621830776],[21.20919113667579,49.196551583151454],[21.209260200077143,49.19652914888372],[21.209122351783492,49.19628470507771],[21.209227172991223,49.19623691375735],[21.20892890501429,49.196034126460106],[21.20902600149782,49.19601913280982],[21.209056376705846,49.19588756653364],[21.208697663927307,49.195597386591366],[21.208714696045984,49.19571917026702],[21.2087281407176,49.196065710168455],[21.208667284570467,49.1959154720707],[21.208452547206214,49.195680165768856],[21.208309355207106,49.19552314355464],[21.20811193873116,49.195380913154345],[21.207895267117138,49.195258069483295],[21.207762654828084,49.19518284184137],[21.207615027504502,49.19511011899025],[21.207449227967967,49.19502846054331],[21.20742433171779,49.1950156258137],[21.207256161528107,49.19492876245223],[21.207011195302407,49.19480215875362],[21.206848938480075,49.19474374419498],[21.206416520911926,49.19458809918867],[21.205932217137143,49.19446243927686],[21.20554552863548,49.19442487470874],[21.20549694565328,49.19441670564298],[21.20506787695815,49.194344067071974],[21.204929875340202,49.19432069985105],[21.20490874977466,49.19431842381858],[21.20448240655651,49.194268912575126],[21.20375081391097,49.19417445525177],[21.203731938941395,49.19416954829771],[21.203540748572884,49.194120042722986],[21.203409831599988,49.19408609131099],[21.20337180770362,49.19407626877817],[21.203062259260484,49.193997701727326],[21.202800357389524,49.19388136507657],[21.20270075250037,49.1937905027633],[21.202628343629122,49.1937243401466],[21.202628082526125,49.19372415199848],[21.202627938985867,49.193724237559906],[21.20258898627843,49.193744362382944],[21.202576713243285,49.19375073266535],[21.202527372636375,49.19371886368259],[21.202363333073485,49.193613036984964],[21.2023470603554,49.19360253939482],[21.202298945671366,49.19358601168963],[21.20210274091813,49.1935185240272],[21.20150482106976,49.19336690093236],[21.201362132117666,49.19332483970202],[21.20121648689578,49.19328187626197],[21.200800652813307,49.1931594017562],[21.20077886750304,49.19315296355339],[21.200743768237363,49.1931426008645],[21.200316488613183,49.19301508787307],[21.200300355288977,49.19301026554181],[21.200257494420374,49.192991379681075],[21.200066745367486,49.19290740434522],[21.200090862099,49.19285504232136],[21.20025172364796,49.1925339007262],[21.20032765039784,49.1923824168888]]]}}]}